code,name,lat,long,tambon,amphoe,province,basin,region,station_type
KSKP  ,อบต.กำแพงแสน,14.003264,99.980928,กำแพงแสน,กำแพงแสน,นครปฐม,แม่น้ำท่าจีน,ภาคกลาง,R
TTWY  ,ทม.วังน้ำเย็น,13.5010944,102.1802304,วังน้ำเย็น,วังน้ำเย็น,สระแก้ว,แม่น้ำปราจีนบุรี,ภาคกลาง,R
KOSB  ,รพสต.ท่าข้าม,13.6276544,102.5748416,ท่าข้าม,อรัญประเทศ,สระแก้ว,โตนเลสาป,ภาคกลาง,R
BDCP  ,อบต.ด่านชุมพล,12.4447144,102.6300672,ด่านชุมพล,บ่อไร่,ตราด,ชายฝั่งทะเลตะวันออก,ภาคกลาง,R
MEWG  ,อบต.บ้านกาด,18.6038928,98.7984704,บ้านกาด,แม่วาง,เชียงใหม่,แม่น้ำปิง,ภาคเหนือ,R
BDLH  ,ทต.ลานหอย,17.008568,99.582944,ลานหอย,บ้านด่านลานหอย,สุโขทัย,แม่น้ำยม,ภาคเหนือ,R
DIWO  ,ทต.เวียงพางคำ,20.4035376,99.8857536,เวียงพางคำ,แม่สาย,เชียงราย,แม่น้ำโขง,ภาคเหนือ,R
PPPG  ,อบต.ปลายโพงพาง,13.384916,99.9269952,ปลายโพงพาง,อัมพวา,สมุทรสงคราม,แม่น้ำเพชรบุรี,ภาคกลาง,R
CHAM  ,การประปา ทม.ชะอำ,12.7863232,99.960192,ชะอำ,ชะอำ,เพชรบุรี,แม่น้ำเพชรบุรี,ภาคกลาง,R
HSYO  ,ทต.ดงมะดะ,19.7471376,99.6835456,ดงมะดะ,แม่ลาว,เชียงราย,แม่น้ำกก,ภาคเหนือ,R
RCHM  ,อบต.ดอนยาง,13.0145888,99.9703936,ดอนยาง,เมืองเพชรบุรี,เพชรบุรี,แม่น้ำเพชรบุรี,ภาคกลาง,R
PDAM  ,ทต.ท่ายาง,12.96336,99.8983872,ท่ายาง,ท่ายาง,เพชรบุรี,แม่น้ำเพชรบุรี,ภาคกลาง,R
HJRN1 ,อบต.หงษ์เจริญ,10.7797248,99.1910784,หงษ์เจริญ,ท่าแซะ,ชุมพร,ภาคใต้ฝั่งตะวันออก,ภาคใต้,R
BLAT  ,ทต.บ้านลาด,13.0495984,99.91616,บ้านลาด,บ้านลาด,เพชรบุรี,แม่น้ำเพชรบุรี,ภาคกลาง,R
TGLM  ,อบต.ป่าหวาย,13.5798432,99.4331264,ป่าหวาย,สวนผึ้ง,ราชบุรี,แม่น้ำแม่กลอง,ภาคกลาง,R
KHCP  ,ทต.เขาขวาง,13.7149648,99.7724864,เตาปูน,โพธาราม,ราชบุรี,แม่น้ำแม่กลอง,ภาคกลาง,R
BBHN  ,อบต.บางหิน,9.536956,98.579488,บางหิน,กะเปอร์,ระนอง,ภาคใต้ฝั่งตะวันตก,ภาคใต้,R
KAHN  ,รร. คำอาฮวนศรีสุราษฎร์วิทยา,16.4964368,104.668512,คำอาฮวน,เมืองมุกดาหาร,มุกดาหาร,แม่น้ำโขง,ภาคตะวันออกเฉียงเหนือ,R
RNGH  ,ทม.ระนอง,9.9603992,98.6378112,เขานิเวศน์,เมืองระนอง,ระนอง,ภาคใต้ฝั่งตะวันตก,ภาคใต้,R
MDTG  ,อบต.เขาล้าน,11.5220488,99.5975552,เขาล้าน,ทับสะแก,ประจวบคีรีขันธ์,ชายฝั่งทะเลประจวบคีรีขันธ์,ภาคกลาง,R
KAKG  ,อบต.ปากฉลุย,9.3005648,99.0260416,ปากฉลุย,ท่าฉาง,สุราษฎร์ธานี,ภาคใต้ฝั่งตะวันออก,ภาคใต้,R
BSMP  ,อบต.บึงสามพัน,15.7780576,101.0208832,บึงสามพัน,บึงสามพัน,เพชรบูรณ์,แม่น้ำป่าสัก,ภาคเหนือ,R
DNCM  ,อบต.ดอนชะเอม,13.9619856,99.8039296,ดอนชะเอม,ท่ามะกา,กาญจนบุรี,แม่น้ำท่าจีน,ภาคกลาง,R
KRMT  ,ทต.บ้านโตนด,16.8337104,99.80272,โตนด,คีรีมาศ,สุโขทัย,แม่น้ำยม,ภาคเหนือ,R
DGSL  ,อบต.นาสวน,14.611416,99.1257536,นาสวน,ศรีสวัสดิ์,กาญจนบุรี,แม่น้ำแม่กลอง,ภาคกลาง,R
POCG  ,ทต.เขาโจด,14.6623664,99.3422784,เขาโจด,ศรีสวัสดิ์,กาญจนบุรี,แม่น้ำแม่กลอง,ภาคกลาง,R
DKTI  ,อบต.แม่อิง,19.22496,99.993664,แม่อิง,ภูกามยาว,พะเยา,แม่น้ำโขง,ภาคเหนือ,R
LNR1  ,อบต.ท่ามะนาว,15.1993232,101.1638784,ท่ามะนาว,ชัยบาดาล,ลพบุรี,แม่น้ำป่าสัก,ภาคกลาง,R
SBT1  ,อบต.ชอนสารเดช,15.1849488,100.681312,ชอนสารเดช,หนองม่วง,ลพบุรี,แม่น้ำเจ้าพระยา,ภาคกลาง,R
SPPT  ,อบต.นายาง,17.909768,99.3096896,นายาง,สบปราบ,ลำปาง,แม่น้ำวัง,ภาคเหนือ,R
WTSG  ,ทต.วัดสิงห์,15.2583616,100.04496,วัดสิงห์,วัดสิงห์,ชัยนาท,แม่น้ำท่าจีน,ภาคกลาง,R
TTKO  ,ทต.ท่าตะโก,15.6324896,100.4748416,ท่าตะโก,ท่าตะโก,นครสวรรค์,แม่น้ำเจ้าพระยา,ภาคเหนือ,R
LTYO  ,ศูนย์อปพร.อบต.ลาดยาว,15.7627856,99.741344,ลาดยาว,ลาดยาว,นครสวรรค์,แม่น้ำเจ้าพระยา,ภาคเหนือ,R
NGSU  ,อบต.หนองบอนแดง,13.3502728,101.1571456,หนองบอนแดง,บ้านบึง,ชลบุรี,แม่น้ำบางปะกง,ภาคกลาง,R
SWNG  ,รพสต.บ่อวิน,13.0550664,101.0978432,บ่อวิน,ศรีราชา,ชลบุรี,ชายฝั่งทะเลตะวันออก,ภาคกลาง,R
NGCG  ,ทต.หนองฉาง,15.3889504,99.8450304,หนองฉาง,หนองฉาง,อุทัยธานี,แม่น้ำสะแกกรัง,ภาคเหนือ,R
UTOG  ,ทต.บ้านนา,12.8268288,101.6696384,บ้านนา,แกลง,ระยอง,ชายฝั่งทะเลตะวันออก,ภาคกลาง,R
PNRN  ,ทต.โป่งน้ำร้อน,12.9051512,102.2664832,โป่งน้ำร้อน,โป่งน้ำร้อน,จันทบุรี,โตนเลสาป,ภาคกลาง,R
NKYG  ,ทต.หนองขาหย่าง,15.3622016,99.9383872,หนองขาหย่าง,หนองขาหย่าง,อุทัยธานี,แม่น้ำสะแกกรัง,ภาคเหนือ,R
BARI  ,ศูนย์อปพร. อบต.บ้านไร่,15.0826576,99.51936,บ้านไร่,บ้านไร่,อุทัยธานี,แม่น้ำท่าจีน,ภาคเหนือ,R
HNRE  ,อบต.ท่ากระดาน,13.6693232,101.5921024,ท่ากระดาน,สนามชัยเขต,ฉะเชิงเทรา,แม่น้ำบางปะกง,ภาคกลาง,R
HIKT  ,อบต.ห้วยคต,15.3036432,99.6097152,ห้วยคต,ห้วยคต,อุทัยธานี,แม่น้ำท่าจีน,ภาคเหนือ,R
BGBO  ,ทต.เกาะช้าง,12.1034464,102.3520256,เกาะช้าง,เกาะช้าง,ตราด,ชายฝั่งทะเลตะวันออก,ภาคกลาง,R
BSCL  ,อบต.ศรีจุฬา,14.0700576,101.1379456,ศรีจุฬา,เมืองนครนายก,นครนายก,แม่น้ำบางปะกง,ภาคกลาง,R
WRRS  ,อบต.ศรีกะอาง,14.2779856,101.1287872,ศรีกะอาง,บ้านนา,นครนายก,แม่น้ำบางปะกง,ภาคกลาง,R
KMSI  ,อบต.กะลาเส,7.7039368,99.31808,กะลาเส,สิเกา,ตรัง,ภาคใต้ฝั่งตะวันตก,ภาคใต้,R
BBWN  ,อบต.บางวัน,9.085644,98.4433664,บางวัน,คุระบุรี,พังงา,ภาคใต้ฝั่งตะวันตก,ภาคใต้,R
PNCR  ,อบต.ป่าแฝก,18.0630784,103.736384,ป่าแฝก,พรเจริญ,บึงกาฬ,แม่น้ำโขง,ภาคตะวันออกเฉียงเหนือ,R
NOKW  ,อบต.หนองพันทา,18.107336,103.4131264,หนองพันทา,โซ่พิสัย,บึงกาฬ,แม่น้ำโขง,ภาคตะวันออกเฉียงเหนือ,R
HKNL  ,ทต.หนองเลิง,18.3391888,103.3977152,หนองเลิง,บึงกาฬ,บึงกาฬ,แม่น้ำโขง,ภาคตะวันออกเฉียงเหนือ,R
BHPK  ,วัดบ้านน้ำเย็น,14.6153504,104.6497216,เมือง,กันทรลักษ์,ศรีสะเกษ,แม่น้ำมูล,ภาคตะวันออกเฉียงเหนือ,R
NOPU  ,อบต.สุขสวัสดิ์,14.864256,104.350688,สุขสวัสดิ์,ไพรบึง,ศรีสะเกษ,แม่น้ำมูล,ภาคตะวันออกเฉียงเหนือ,R
BNLG  ,อบต.ขะยูง,15.1219392,104.2413696,ขะยูง,อุทุมพรพิสัย,ศรีสะเกษ,แม่น้ำมูล,ภาคตะวันออกเฉียงเหนือ,R
BUSW  ,อบต.บึงกาฬ,18.364728,103.6541312,บึงกาฬ,บึงกาฬ,บึงกาฬ,แม่น้ำโขง,ภาคตะวันออกเฉียงเหนือ,R
TTLG  ,อบต.ทับปุด,8.503284,98.6302272,ทับปุด,ทับปุด,พังงา,ภาคใต้ฝั่งตะวันตก,ภาคใต้,R
BNMK  ,อบต.สวาท,16.1897488,104.5163712,สวาท,เลิงนกทา,ยโสธร,แม่น้ำมูล,ภาคตะวันออกเฉียงเหนือ,R
BHRA  ,อบต.ขี้เหล็ก,15.3423136,104.821568,ขี้เหล็ก,เมืองอุบลราชธานี,อุบลราชธานี,แม่น้ำมูล,ภาคตะวันออกเฉียงเหนือ,R
NAPK  ,อบต.นาโพธิ์กลาง,15.5602944,105.5019136,นาโพธิ์กลาง,โขงเจียม,อุบลราชธานี,แม่น้ำโขง,ภาคตะวันออกเฉียงเหนือ,R
SKPG  ,รร.อนุบาล ทต.สันกำแพง,18.7528976,99.1274304,สันกำแพง,สันกำแพง,เชียงใหม่,แม่น้ำปิง,ภาคเหนือ,R
NGPH  ,ทต.หนองผือ,15.9776688,105.033952,หนองผือ,เขมราฐ,อุบลราชธานี,แม่น้ำโขง,ภาคตะวันออกเฉียงเหนือ,R
UDMS  ,อบต.อุดมทรัพย์,14.5379248,101.969344,อุดมทรัพย์,วังน้ำเขียว,นครราชสีมา,แม่น้ำมูล,ภาคตะวันออกเฉียงเหนือ,R
NANG  ,อบต.คลองหิน,8.2841744,98.7970816,คลองหิน,อ่าวลึก,กระบี่,ภาคใต้ฝั่งตะวันตก,ภาคใต้,R
BKUG  ,อบต.ตะคุ,14.7292544,101.987328,ตะคุ,ปักธงชัย,นครราชสีมา,แม่น้ำมูล,ภาคตะวันออกเฉียงเหนือ,R
PANG  ,อบต.ปากพนังฝั่งตะวันออก,8.3881904,100.23184,ปากพนังฝั่งตะวันออก,ปากพนัง,นครศรีธรรมราช,ภาคใต้ฝั่งตะวันออก,ภาคใต้,R
BTGH  ,อบต.ยะรม,5.7758872,101.0924416,ยะรม,เบตง,ยะลา,แม่น้ำปัตตานี,ภาคใต้,R
WGHG  ,อบต.เปียงหลวง,19.6492384,98.6348352,เปียงหลวง,เวียงแหง,เชียงใหม่,แม่น้ำปิง,ภาคเหนือ,R
BMDG  ,อบต.นากะซะ,8.4269408,99.4459072,นากะชะ,ฉวาง,นครศรีธรรมราช,แม่น้ำตาปี,ภาคใต้,R
CHPA  ,อบต.จอมพระ,15.1137952,103.6103936,จอมพระ,จอมพระ,สุรินทร์,แม่น้ำมูล,ภาคตะวันออกเฉียงเหนือ,R
BJAN  ,อบต.บ้านจารย์,14.5665248,103.7427712,บ้านจารย์,สังขะ,สุรินทร์,แม่น้ำมูล,ภาคตะวันออกเฉียงเหนือ,R
NPCT  ,อบต.พิจิตร,6.9883152,100.5715712,พิจิตร,นาหม่อม,สงขลา,ทะเลสาบสงขลา,ภาคใต้,R
ACRU  ,ทต.ไก่คำ,15.7880928,104.6421952,ไก่คำ,เมืองอำนาจเจริญ,อำนาจเจริญ,แม่น้ำมูล,ภาคตะวันออกเฉียงเหนือ,R
BNYM  ,อบต.นายม,15.861888,104.5155584,นายม,เมืองอำนาจเจริญ,อำนาจเจริญ,แม่น้ำมูล,ภาคตะวันออกเฉียงเหนือ,R
PTYS  ,อบต.หนองกุงธนสาร,16.638704,102.4205952,หนองกุงธนสาร,ภูเวียง,ขอนแก่น,แม่น้ำชี,ภาคตะวันออกเฉียงเหนือ,R
NKSG  ,อบต.ด่านจาก,15.1655664,102.0877184,ด่านจาก,โนนไทย,นครราชสีมา,แม่น้ำมูล,ภาคตะวันออกเฉียงเหนือ,R
CBUR  ,อบต.ชัยบุรี,8.4506608,99.083072,ชัยบุรี,ชัยบุรี,สุราษฎร์ธานี,แม่น้ำตาปี,ภาคใต้,R
BDGN  ,ทม.บ้านดุง,17.7045376,103.263744,ศรีสุทโธ,บ้านดุง,อุดรธานี,แม่น้ำโขง,ภาคตะวันออกเฉียงเหนือ,R
PPTC  ,อบต.โพธิ์ประทับช้าง,16.3106624,100.2953536,โพธิ์ประทับช้าง,โพธิ์ประทับช้าง,พิจิตร,แม่น้ำยม,ภาคเหนือ,R
BDWN  ,อบต.ดอนหว่าน,16.0081456,103.319072,ดอนหว่าน,เมืองมหาสารคาม,มหาสารคาม,แม่น้ำชี,ภาคตะวันออกเฉียงเหนือ,R
CPON  ,ทต.ชุมพร,16.3682256,104.0578496,ชุมพร,เมยวดี,ร้อยเอ็ด,แม่น้ำชี,ภาคตะวันออกเฉียงเหนือ,R
TPPN  ,ทม.ท่าข้าม,9.1060512,99.2328064,ท่าข้าม,พุนพิน,สุราษฎร์ธานี,แม่น้ำตาปี,ภาคใต้,R
BSBA  ,อบต.ควนสุบรรณ,8.8815272,99.3822656,ลำพูน,บ้านนาสาร,สุราษฎร์ธานี,แม่น้ำตาปี,ภาคใต้,R
TSDO  ,ทม.สะเดา,6.638352,100.4247552,สะเดา,สะเดา,สงขลา,ทะเลสาบสงขลา,ภาคใต้,R
BAKI  ,ทต.โคกสี,17.6160608,103.4270784,โคกสี,สว่างแดนดิน,สกลนคร,แม่น้ำโขง,ภาคตะวันออกเฉียงเหนือ,R
MKTR  ,ทต.กันทรารมย์,15.105264,104.5686784,ดูน,กันทรารมย์,ศรีสะเกษ,แม่น้ำมูล,ภาคตะวันออกเฉียงเหนือ,R
BTUD  ,อบต.ตาอุด,14.6667376,104.2731904,ตาอุด,ขุขันธ์,ศรีสะเกษ,แม่น้ำมูล,ภาคตะวันออกเฉียงเหนือ,R
LGTI  ,อบต.บ้านแหง,18.7633824,100.0087616,บ้านแหง,งาว,ลำปาง,แม่น้ำยม,ภาคเหนือ,R
BMOD  ,เทศบาลตำบลเหนือ,16.4253008,103.55968,เหนือ,เมืองกาฬสินธุ์,กาฬสินธุ์,แม่น้ำชี,ภาคตะวันออกเฉียงเหนือ,R
NYUN  ,ทต.น้ำยืน,14.4996192,104.9980416,สีวิเชียร,น้ำยืน,อุบลราชธานี,แม่น้ำมูล,ภาคตะวันออกเฉียงเหนือ,R
NGCH  ,อบต.โบสถ์,15.2785008,102.6390656,โบสถ์,พิมาย,นครราชสีมา,แม่น้ำมูล,ภาคตะวันออกเฉียงเหนือ,R
BSDE  ,ทต.ไชยมงคล,14.8375824,102.0688384,ไชยมงคล,เมืองนครราชสีมา,นครราชสีมา,แม่น้ำมูล,ภาคตะวันออกเฉียงเหนือ,R
HYOD  ,ทต.ห้วยยอด,7.789208,99.6334336,ห้วยยอด,ห้วยยอด,ตรัง,ภาคใต้ฝั่งตะวันตก,ภาคใต้,R
WNKH  ,อบต.วังน้ำเขียว,14.3744608,101.865152,วังน้ำเขียว,วังน้ำเขียว,นครราชสีมา,แม่น้ำมูล,ภาคตะวันออกเฉียงเหนือ,R
BSUM  ,อบต.สัมฤทธิ์,15.2120736,102.446144,สัมฤทธิ์,พิมาย,นครราชสีมา,แม่น้ำมูล,ภาคตะวันออกเฉียงเหนือ,R
BNKP  ,อบต.หนองกง,14.6946304,102.88832,หนองกง,นางรอง,บุรีรัมย์,แม่น้ำมูล,ภาคตะวันออกเฉียงเหนือ,R
CHNA  ,อบต.สินปุน,8.2522328,99.2744384,สินปุน,เขาพนม,กระบี่,แม่น้ำตาปี,ภาคใต้,R
NNKO  ,อบต.โนนกอก,16.1992384,101.932384,โนนกอก,เกษตรสมบูรณ์,ชัยภูมิ,แม่น้ำชี,ภาคตะวันออกเฉียงเหนือ,R
THAT  ,อบต.ธาตุ,15.3167056,103.9355072,ธาตุ,รัตนบุรี,สุรินทร์,แม่น้ำมูล,ภาคตะวันออกเฉียงเหนือ,R
NNTU  ,อบต.นาหนองทุ่ม,16.67888,101.9871104,นาหนองทุ่ม,ชุมแพ,ขอนแก่น,แม่น้ำชี,ภาคตะวันออกเฉียงเหนือ,R
BCNG  ,อบต.บ้านยา,17.3868544,103.2908736,บ้านยา,หนองหาน,อุดรธานี,แม่น้ำโขง,ภาคตะวันออกเฉียงเหนือ,R
BDMG  ,อบต.กุมภวาปี,17.0768288,103.0215616,กุมภวาปี,กุมภวาปี,อุดรธานี,แม่น้ำชี,ภาคตะวันออกเฉียงเหนือ,R
SGKM  ,ทต.สังคม,18.0686256,102.262688,สังคม,สังคม,หนองคาย,แม่น้ำโขง,ภาคตะวันออกเฉียงเหนือ,R
NASW  ,อบต.นาซ่าว,17.824248,101.6691584,นาซ่าว,เชียงคาน,เลย,แม่น้ำโขง,ภาคตะวันออกเฉียงเหนือ,R
TPUR  ,ทต.ภูเรือ,17.4578016,101.3606464,หนองบัว,ภูเรือ,เลย,แม่น้ำโขง,ภาคตะวันออกเฉียงเหนือ,R
NMNO  ,อบต.น้ำหนาว,16.7702416,101.6699584,น้ำหนาว,น้ำหนาว,เพชรบูรณ์,แม่น้ำชี,ภาคเหนือ,R
SACS  ,ทต.อัคคะคำ,16.3808896,103.754752,อัคคะคำ,โพธิ์ชัย,ร้อยเอ็ด,แม่น้ำชี,ภาคตะวันออกเฉียงเหนือ,R
KWSI  ,รร. เทศบาล 1 (ทต.เกษตรวิสัย),15.6653296,103.5742464,เกษตรวิสัย,เกษตรวิสัย,ร้อยเอ็ด,แม่น้ำมูล,ภาคตะวันออกเฉียงเหนือ,R
BNHO  ,อบต.โพธิ์ทอง,16.1266576,104.1151232,โพธิ์ทอง,เสลภูมิ,ร้อยเอ็ด,แม่น้ำชี,ภาคตะวันออกเฉียงเหนือ,R
YBKM  ,อบต.ขัวก่าย,17.6021328,103.8070784,ขัวก่าย,วานรนิวาส,สกลนคร,แม่น้ำโขง,ภาคตะวันออกเฉียงเหนือ,R
BTHO  ,อบต.หนองแปน,17.7036,103.4351424,หนองแปน,เจริญศิลป์,สกลนคร,แม่น้ำโขง,ภาคตะวันออกเฉียงเหนือ,R
PPAN  ,ทต.โคกภู,17.0063024,103.916,โคกภู,ภูพาน,สกลนคร,แม่น้ำโขง,ภาคตะวันออกเฉียงเหนือ,R
KMTK  ,อบต.คำตากล้า,17.8311328,103.7567424,คำตากล้า,คำตากล้า,สกลนคร,แม่น้ำโขง,ภาคตะวันออกเฉียงเหนือ,R
MUNG  ,อบต.มะนังดาลำ,6.673252,101.6092096,มะนังดาลำ,สายบุรี,ปัตตานี,ภาคใต้ฝั่งตะวันออก,ภาคใต้,R
NTNG  ,รพสต.บ้านหนองไคร้,18.6013024,98.9396672,หนองตอง,หางดง,เชียงใหม่,แม่น้ำปิง,ภาคเหนือ,R
BPUG  ,อบต.บ้านผึ้ง,17.3515008,104.6204032,บ้านผึ้ง,เมืองนครพนม,นครพนม,แม่น้ำโขง,ภาคตะวันออกเฉียงเหนือ,R
NAKU  ,อบต.นาคู,16.7978608,104.044768,นาคู,นาคู,กาฬสินธุ์,แม่น้ำชี,ภาคตะวันออกเฉียงเหนือ,R
BTCH  ,ทต.ทับช้าง,13.2346112,102.187328,ทับช้าง,สอยดาว,จันทบุรี,แม่น้ำปราจีนบุรี,ภาคกลาง,R
KHDM  ,อบต.เขาค่าย,10.1220064,98.8959296,เขาค่าย,สวี,ชุมพร,ภาคใต้ฝั่งตะวันออก,ภาคใต้,R
PRUK  ,อบต.พระรักษ์,9.8962224,98.8870912,พระรักษ์,พะโต๊ะ,ชุมพร,ภาคใต้ฝั่งตะวันออก,ภาคใต้,R
NASG  ,ทต.นาส่วง,15.0115488,104.94816,นาส่วง,เดชอุดม,อุบลราชธานี,แม่น้ำมูล,ภาคตะวันออกเฉียงเหนือ,R
WGRY  ,อบต.วังโรงใหญ่,15.0506048,101.662208,วังโรงใหญ่,สีคิ้ว,นครราชสีมา,แม่น้ำมูล,ภาคตะวันออกเฉียงเหนือ,R
SISU  ,อบต.ศรีละกอ,14.94752,102.402784,ศรีละกอ,จักราช,นครราชสีมา,แม่น้ำมูล,ภาคตะวันออกเฉียงเหนือ,R
WNMI  ,อบต.วังหมี,14.4156848,101.6840256,วังหมี,วังน้ำเขียว,นครราชสีมา,แม่น้ำมูล,ภาคตะวันออกเฉียงเหนือ,R
TMLI  ,ทต.วังใหม่,10.503836,98.9858496,วังใหม่,เมืองชุมพร,ชุมพร,ภาคใต้ฝั่งตะวันออก,ภาคใต้,R
KOSK  ,อบต.คลองศก,8.8904768,98.661344,คลองศก,พนม,สุราษฎร์ธานี,แม่น้ำตาปี,ภาคใต้,R
BGYN  ,อบต.บางใหญ่,10.3063392,98.770688,บางใหญ่,กระบุรี,ระนอง,ภาคใต้ฝั่งตะวันตก,ภาคใต้,R
CIHO  ,อบต.บูกิต,6.1992504,101.8271296,บูกิต,เจาะไอร้อง,นราธิวาส,ภาคใต้ฝั่งตะวันออก,ภาคใต้,R
BUKT  ,ทต.บูเก๊ะตา,5.848682,101.8803136,โละจูด,แว้ง,นราธิวาส,ภาคใต้ฝั่งตะวันออก,ภาคใต้,R
CGDO  ,ทต.แม่นะ,19.341248,98.9613312,แม่นะ,เชียงดาว,เชียงใหม่,แม่น้ำปิง,ภาคเหนือ,R
HUYG  ,อบต.หนองโพนงาม,16.4305312,101.9662784,หนองโพนงาม,เกษตรสมบูรณ์,ชัยภูมิ,แม่น้ำชี,ภาคตะวันออกเฉียงเหนือ,R
CSMO  ,อบต.ช่องสามหมอ,16.1166976,102.2319616,ช่องสามหมอ,แก้งคร้อ,ชัยภูมิ,แม่น้ำชี,ภาคตะวันออกเฉียงเหนือ,R
BJIG  ,อบต.บ้านเจียง,16.0188304,101.5000896,บ้านเจียง,ภักดีชุมพล,ชัยภูมิ,แม่น้ำชี,ภาคตะวันออกเฉียงเหนือ,R
BKHI  ,ทต.บ้านค่ายหมื่นแผ้ว,15.6989632,102.0147712,บ้านค่าย,เมืองชัยภูมิ,ชัยภูมิ,แม่น้ำชี,ภาคตะวันออกเฉียงเหนือ,R
BTUM  ,ทม.บ้านทุ่ม,16.4445008,102.7251456,บ้านทุ่ม,เมืองขอนแก่น,ขอนแก่น,แม่น้ำชี,ภาคตะวันออกเฉียงเหนือ,R
KUDN  ,เทศบาลนครอุดรธานี,17.4129328,102.7886784,หมากแข้ง,เมืองอุดรธานี,อุดรธานี,แม่น้ำโขง,ภาคตะวันออกเฉียงเหนือ,R
BNPU  ,เทศบาลตำบลบ้านผือ,17.6867568,102.4765184,บ้านผือ,บ้านผือ,อุดรธานี,แม่น้ำโขง,ภาคตะวันออกเฉียงเหนือ,R
BPIA  ,อบต.ท่าสะอาด,17.4902416,101.9320896,ท่าสะอาด,นาด้วง,เลย,แม่น้ำโขง,ภาคตะวันออกเฉียงเหนือ,R
KHPB  ,อบจ.เพชรบูรณ์,16.4412512,101.1490624,ในเมือง,เมืองเพชรบูรณ์,เพชรบูรณ์,แม่น้ำป่าสัก,ภาคเหนือ,R
POCE  ,อบต.กกสะทอน,17.0894928,101.110048,กกสะทอน,ด่านซ้าย,เลย,แม่น้ำโขง,ภาคตะวันออกเฉียงเหนือ,R
NEAK  ,รร. บ้านหนองแอก,17.8894704,103.2106112,บ้านผือ,โพนพิสัย,หนองคาย,แม่น้ำโขง,ภาคตะวันออกเฉียงเหนือ,R
NNDG  ,อบต.โนนแดง,15.8911632,103.0781312,โนนแดง,บรบือ,มหาสารคาม,แม่น้ำมูล,ภาคตะวันออกเฉียงเหนือ,R
BKHN  ,อบต.บ้านลำนาว,8.0291944,99.4758656,บ้านลำนาว,บางขัน,นครศรีธรรมราช,ภาคใต้ฝั่งตะวันตก,ภาคใต้,R
NKNN  ,อบต.นิคมน้ำอูน,17.204112,103.6870656,นิคมน้ำอูน,นิคมน้ำอูน,สกลนคร,แม่น้ำโขง,ภาคตะวันออกเฉียงเหนือ,R
TOGO  ,ที่ว่าการอำเภอเต่างอย,16.9974064,104.1674304,นาตาล,เต่างอย,สกลนคร,แม่น้ำโขง,ภาคตะวันออกเฉียงเหนือ,R
SITP  ,อบต.ศรีเทพ,15.4379056,101.162528,ศรีเทพ,ศรีเทพ,เพชรบูรณ์,แม่น้ำป่าสัก,ภาคเหนือ,R
BPUN  ,ทต.ศรีสงคราม,17.6269936,104.2614336,ศรีสงคราม,ศรีสงคราม,นครพนม,แม่น้ำโขง,ภาคตะวันออกเฉียงเหนือ,R
DTAN  ,ทต.ดอนตาล,16.3183808,104.9189952,ดอนตาล,ดอนตาล,มุกดาหาร,แม่น้ำโขง,ภาคตะวันออกเฉียงเหนือ,R
JBLG  ,ทต.เจ๊ะบิลัง,6.6572404,99.9703424,เจ๊ะบิลัง,เมืองสตูล,สตูล,ภาคใต้ฝั่งตะวันตก,ภาคใต้,R
NGPI  ,อบต.หนองไผ่,15.9816496,101.07376,หนองไผ่,หนองไผ่,เพชรบูรณ์,แม่น้ำป่าสัก,ภาคเหนือ,R
SYKP  ,ทต.ปากตะโก,10.1005848,99.1378432,ปากตะโก,ทุ่งตะโก,ชุมพร,ภาคใต้ฝั่งตะวันออก,ภาคใต้,R
CCSS  ,อบต.ท่าข้าม,10.6203432,99.1282816,ท่าข้าม,ท่าแซะ,ชุมพร,ภาคใต้ฝั่งตะวันออก,ภาคใต้,R
PSLI  ,ทต.ไพศาลี,15.6001744,100.6571904,ไพศาลี,ไพศาลี,นครสวรรค์,แม่น้ำเจ้าพระยา,ภาคเหนือ,R
TSUD  ,อบต.โคกชำแระ,14.7326128,104.9076096,โคกชำแระ,ทุ่งศรีอุดม,อุบลราชธานี,แม่น้ำมูล,ภาคตะวันออกเฉียงเหนือ,R
TKPP  ,ทต.ตระการพืชผล,15.6215808,105.0230464,กระเดียน,ตระการพืชผล,อุบลราชธานี,แม่น้ำมูล,ภาคตะวันออกเฉียงเหนือ,R
BNAK  ,อบต.บ้านแมด,14.8545296,105.3219584,บ้านแมด,บุณฑริก,อุบลราชธานี,แม่น้ำมูล,ภาคตะวันออกเฉียงเหนือ,R
KANG  ,อบต.แก้ง,14.7103008,105.017984,แก้ง,เดชอุดม,อุบลราชธานี,แม่น้ำมูล,ภาคตะวันออกเฉียงเหนือ,R
DOCI  ,ทต.ทาสบเส้า,18.465392,99.1267456,ทาสบเส้า,แม่ทา,ลำพูน,แม่น้ำปิง,ภาคเหนือ,R
RAWE  ,อบต.ระเว,15.3100384,105.2790656,ระเว,พิบูลมังสาหาร,อุบลราชธานี,แม่น้ำมูล,ภาคตะวันออกเฉียงเหนือ,R
NBLK  ,อบต.หนองบัวละคร,15.2542496,101.8664064,หนองบัวละคร,ด่านขุนทด,นครราชสีมา,แม่น้ำมูล,ภาคตะวันออกเฉียงเหนือ,R
TLPC  ,อบต.ขนงพระ,14.6068784,101.4563072,ขนงพระ,ปากช่อง,นครราชสีมา,แม่น้ำมูล,ภาคตะวันออกเฉียงเหนือ,R
KHOG  ,ทต.เมืองคง,15.4437488,102.3284352,เมืองคง,คง,นครราชสีมา,แม่น้ำมูล,ภาคตะวันออกเฉียงเหนือ,R
BGRT  ,ทต.กงรถ,15.0136448,102.7485952,กงรถ,ห้วยแถลง,นครราชสีมา,แม่น้ำมูล,ภาคตะวันออกเฉียงเหนือ,R
BDAR  ,ทต.ดอนอะราง,14.5870416,102.4956672,ดอนอะราง,หนองกี่,บุรีรัมย์,แม่น้ำมูล,ภาคตะวันออกเฉียงเหนือ,R
KNDG  ,อบต.แคนดง,15.3082736,103.124032,แคนดง,แคนดง,บุรีรัมย์,แม่น้ำมูล,ภาคตะวันออกเฉียงเหนือ,R
HYRT  ,ทต.ห้วยราช,14.9733584,103.1865216,ห้วยราช,ห้วยราช,บุรีรัมย์,แม่น้ำมูล,ภาคตะวันออกเฉียงเหนือ,R
BSKJ  ,อบต.ละหานทราย,14.3956896,102.8472256,ละหานทราย,ละหานทราย,บุรีรัมย์,แม่น้ำมูล,ภาคตะวันออกเฉียงเหนือ,R
KKHA  ,อบต.เทพราช,8.8580592,99.8636672,เทพราช,สิชล,นครศรีธรรมราช,ภาคใต้ฝั่งตะวันออก,ภาคใต้,R
LNRG  ,อบต.ลำนางรอง,14.1888576,102.6847552,ลำนางรอง,โนนดินแดง,บุรีรัมย์,แม่น้ำมูล,ภาคตะวันออกเฉียงเหนือ,R
MGTI  ,อบต.นอกเมือง,14.8507856,103.49776,นอกเมือง,เมืองสุรินทร์,สุรินทร์,แม่น้ำมูล,ภาคตะวันออกเฉียงเหนือ,R
BTHI  ,ศูนย์อปพร. ทต.บ้านธิ,18.6517664,99.116512,บ้านธิ,บ้านธิ,ลำพูน,แม่น้ำปิง,ภาคเหนือ,R
NANP  ,ทต.นาหนองไผ่,15.3504976,103.4760832,นาหนองไผ่,ชุมพลบุรี,สุรินทร์,แม่น้ำมูล,ภาคตะวันออกเฉียงเหนือ,R
PRST  ,อบต.กังแอน,14.6454112,103.4362816,กังแอน,ปราสาท,สุรินทร์,แม่น้ำมูล,ภาคตะวันออกเฉียงเหนือ,R
BPLA  ,อบต.เขาไชยราช,10.9443464,99.2975552,เขาไชยราช,ปะทิว,ชุมพร,ภาคใต้ฝั่งตะวันออก,ภาคใต้,R
TEPT  ,อบต.โคกเริงรมย์,15.3994576,101.602592,โคกเริงรมย์,บำเหน็จณรงค์,ชัยภูมิ,แม่น้ำชี,ภาคตะวันออกเฉียงเหนือ,R
SMSU  ,ทต.บ้านเต่า,16.3556384,102.3785984,บ้านเต่า,บ้านแท่น,ชัยภูมิ,แม่น้ำชี,ภาคตะวันออกเฉียงเหนือ,R
LHOK  ,อบต.เหล่ากอหก,17.4963824,100.8875136,เหล่ากอหก,นาแห้ว,เลย,แม่น้ำโขง,ภาคตะวันออกเฉียงเหนือ,R
NNPT  ,อบต.วังทอง,17.3207936,102.0247936,วังทอง,นาวัง,หนองบัวลำภู,แม่น้ำชี,ภาคตะวันออกเฉียงเหนือ,R
SOKL  ,อบต.ปางกู่,17.0199984,102.5912384,ปางกู่,โนนสัง,หนองบัวลำภู,แม่น้ำชี,ภาคตะวันออกเฉียงเหนือ,R
BNHI  ,อบต.นาคำไฮ,17.2618176,102.338208,นาคำไฮ,เมืองหนองบัวลำภู,หนองบัวลำภู,แม่น้ำชี,ภาคตะวันออกเฉียงเหนือ,R
SENM  ,ทต.เสริมงาม,18.0662384,99.2494784,ทุ่งงาม,เสริมงาม,ลำปาง,แม่น้ำวัง,ภาคเหนือ,R
HNCG  ,ทต.ปากน้ำ,9.9465488,98.5951936,ปากน้ำ,เมืองระนอง,ระนอง,ภาคใต้ฝั่งตะวันตก,ภาคใต้,R
MRMT  ,อบต.แม่ระมาด,16.9899008,98.5182784,แม่ระมาด,แม่ระมาด,ตาก,แม่น้ำสาละวิน,ภาคเหนือ,R
BNPI  ,อบต.บ้านไผ่,16.1166208,102.7067264,ในเมือง,บ้านไผ่,ขอนแก่น,แม่น้ำชี,ภาคตะวันออกเฉียงเหนือ,R
SPWA  ,อบต.ป่าแก่บ่อหิน,7.0564368,99.8019136,ป่าแก่บ่อหิน,ทุ่งหว้า,สตูล,ภาคใต้ฝั่งตะวันตก,ภาคใต้,R
PHON  ,อบต.โนนข่า,15.7813488,102.5964864,โนนข่า,พล,ขอนแก่น,แม่น้ำมูล,ภาคตะวันออกเฉียงเหนือ,R
KPEM  ,อบต.พังทุย,16.7482288,102.9232064,พังทุย,น้ำพอง,ขอนแก่น,แม่น้ำชี,ภาคตะวันออกเฉียงเหนือ,R
NKTP  ,ทต.บะยาว,17.0808656,103.3991296,บะยาว,วังสามหมอ,อุดรธานี,แม่น้ำชี,ภาคตะวันออกเฉียงเหนือ,R
NONA  ,อบต.หนองนาง,17.6951008,102.6152832,หนองนาง,ท่าบ่อ,หนองคาย,แม่น้ำโขง,ภาคตะวันออกเฉียงเหนือ,R
PHPS  ,อบต.จุมพล,18.059136,103.081728,จุมพล,โพนพิสัย,หนองคาย,แม่น้ำโขง,ภาคตะวันออกเฉียงเหนือ,R
PTWY  ,สวนสาธารณะหนองถิ่น ทม.หนองคาย,17.877032,102.727104,ในเมือง,เมืองหนองคาย,หนองคาย,แม่น้ำโขง,ภาคตะวันออกเฉียงเหนือ,R
PGKH  ,ทต.พังโคน,17.3985968,103.7142912,พังโคน,พังโคน,สกลนคร,แม่น้ำโขง,ภาคตะวันออกเฉียงเหนือ,R
KSPS  ,ทต.โกสุมพิสัย,16.2430304,103.0630912,หัวขวาง,โกสุมพิสัย,มหาสารคาม,แม่น้ำชี,ภาคตะวันออกเฉียงเหนือ,R
KGTP  ,ทต.คุ้งตะเภา,17.625312,100.1236672,คุ้งตะเภา,เมืองอุตรดิตถ์,อุตรดิตถ์,แม่น้ำน่าน,ภาคเหนือ,R
KSOD  ,อบต.คลองพา,9.5924744,99.1195712,คลองพา,ท่าชนะ,สุราษฎร์ธานี,ภาคใต้ฝั่งตะวันออก,ภาคใต้,R
NTTI  ,อบต.หนองหมื่นถ่าน,15.75412,103.917408,หนองหมื่นถ่าน,อาจสามารถ,ร้อยเอ็ด,แม่น้ำชี,ภาคตะวันออกเฉียงเหนือ,R
ABRT  ,วัดเวฬุวัน,16.0547936,103.664288,เหนือเมือง,เมืองร้อยเอ็ด,ร้อยเอ็ด,แม่น้ำชี,ภาคตะวันออกเฉียงเหนือ,R
KMCE  ,อบต.น้ำเที่ยง,16.5431232,104.4085056,น้ำเที่ยง,คำชะอี,มุกดาหาร,แม่น้ำโขง,ภาคตะวันออกเฉียงเหนือ,R
BBUA  ,ทต.บัวสว่าง,17.3729184,103.9844672,สว่าง,พรรณานิคม,สกลนคร,แม่น้ำโขง,ภาคตะวันออกเฉียงเหนือ,R
TARE  ,ทต.ท่าแร่,17.251768,104.1817856,ท่าแร่,เมืองสกลนคร,สกลนคร,แม่น้ำโขง,ภาคตะวันออกเฉียงเหนือ,R
DMKH  ,อบต.ด่านม่วงคำ,17.079208,104.325888,ด่านม่วงคำ,โคกศรีสุพรรณ,สกลนคร,แม่น้ำโขง,ภาคตะวันออกเฉียงเหนือ,R
BNKE  ,อบต.พุ่มแก,16.9088976,104.618688,พุ่มแก,นาแก,นครพนม,แม่น้ำโขง,ภาคตะวันออกเฉียงเหนือ,R
CHHA  ,ทต.ช่อแฮ,18.0888608,100.2121216,ช่อแฮ,เมืองแพร่,แพร่,แม่น้ำยม,ภาคเหนือ,R
RGKG  ,อบต.ร้องกวาง,18.3588368,100.3339072,ร้องกวาง,ร้องกวาง,แพร่,แม่น้ำยม,ภาคเหนือ,R
SGMN  ,ศูนย์พัฒนาเด็กเล็ก อบต.สูงเม่น,18.0626656,100.0952832,สูงเม่น,สูงเม่น,แพร่,แม่น้ำยม,ภาคเหนือ,R
MCHI  ,ทต.แม่ใจ,19.3460624,99.8135872,แม่ใจ,แม่ใจ,พะเยา,แม่น้ำโขง,ภาคเหนือ,R
NMKI  ,ทต.หนองม่วงไข่,18.2642976,100.2001024,หนองม่วงไข่,หนองม่วงไข่,แพร่,แม่น้ำยม,ภาคเหนือ,R
DKMU  ,อบต.ปางหมู,19.3338496,97.9656832,ปางหมู,เมืองแม่ฮ่องสอน,แม่ฮ่องสอน,แม่น้ำสาละวิน,ภาคเหนือ,R
BNHG  ,ทต.บ้านโฮ่ง,18.3353328,98.8183552,บ้านโฮ่ง,บ้านโฮ่ง,ลำพูน,แม่น้ำปิง,ภาคเหนือ,R
KNYM  ,ทต.ขุนยวม,18.8313888,97.9366464,ขุนยวม,ขุนยวม,แม่ฮ่องสอน,แม่น้ำสาละวิน,ภาคเหนือ,R
CGMN  ,ทต.เชียงม่วน,18.8938416,100.28784,เชียงม่วน,เชียงม่วน,พะเยา,แม่น้ำยม,ภาคเหนือ,R
BMKN  ,ทต.สันติสุข,18.528992,98.8210816,สันติสุข,ดอยหล่อ,เชียงใหม่,แม่น้ำปิง,ภาคเหนือ,R
LEEE  ,ทต.วังดิน,17.8019888,98.9471552,ลี้,ลี้,ลำพูน,แม่น้ำปิง,ภาคเหนือ,R
WGCI  ,ทต.สิริเวียงชัย,19.8674976,99.8900736,เวียงชัย,เวียงชัย,เชียงราย,แม่น้ำกก,ภาคเหนือ,R
CGKG  ,ทต.เวียง,20.2573664,100.4028864,เวียง,เชียงของ,เชียงราย,แม่น้ำโขง,ภาคเหนือ,R
MECN  ,ทต.แม่จัน,20.1392448,99.8579904,แม่จัน,แม่จัน,เชียงราย,แม่น้ำโขง,ภาคเหนือ,R
PASG  ,ทต.ป่าซาง,18.5181104,98.9394816,ป่าซาง,ป่าซาง,ลำพูน,แม่น้ำปิง,ภาคเหนือ,R
WPAP  ,ทต.เวียงป่าเป้า,19.3630528,99.5024064,เวียง,เวียงป่าเป้า,เชียงราย,แม่น้ำกก,ภาคเหนือ,R
YGHM  ,ทต.ยางฮอม,19.9223024,100.305664,ยางฮอม,ขุนตาล,เชียงราย,แม่น้ำโขง,ภาคเหนือ,R
SLBC  ,อบต.สลกบาตร,15.9790704,99.824608,สลกบาตร,ขาณุวรลักษบุรี,กำแพงเพชร,แม่น้ำเจ้าพระยา,ภาคเหนือ,R
WBYN  ,อบต.แม่ใส,19.1321616,99.8764672,แม่ใส,เมืองพะเยา,พะเยา,แม่น้ำโขง,ภาคเหนือ,R
SRKT  ,อบต.ท่าแฝก,17.9457168,100.6310656,ท่าแฝก,ท่าปลา,อุตรดิตถ์,แม่น้ำน่าน,ภาคเหนือ,R
CEHM  ,อบต.แจ้ห่ม,18.712304,99.5820672,แจ้ห่ม,แจ้ห่ม,ลำปาง,แม่น้ำวัง,ภาคเหนือ,R
WGNA  ,ทต.บ้านใหม่,19.1767888,99.6208704,วังเหนือ,วังเหนือ,ลำปาง,แม่น้ำวัง,ภาคเหนือ,R
RIKK  ,อบต.รอบเวียง,19.914936,99.8780352,รอบเวียง,เมืองเชียงราย,เชียงราย,แม่น้ำกก,ภาคเหนือ,R
BPPS  ,อบต.บางตาหงาย,15.9371344,99.9916864,บางตาหงาย,บรรพตพิสัย,นครสวรรค์,แม่น้ำปิง,ภาคเหนือ,R
KOLO  ,ทต.เก้าเลี้ยว,15.8602928,100.0917952,เก้าเลี้ยว,เก้าเลี้ยว,นครสวรรค์,แม่น้ำปิง,ภาคเหนือ,R
BKDN  ,อบต.เขาทอง,15.5707184,100.1832064,เขาทอง,พยุหะคีรี,นครสวรรค์,แม่น้ำเจ้าพระยา,ภาคเหนือ,R
SKKG  ,อบต.สะแกกรัง,15.399048,100.0350656,สะแกกรัง,เมืองอุทัยธานี,อุทัยธานี,แม่น้ำสะแกกรัง,ภาคเหนือ,R
SWAR  ,ทต.สว่างอารมณ์,15.5854112,99.8651456,สว่างอารมณ์,สว่างอารมณ์,อุทัยธานี,แม่น้ำสะแกกรัง,ภาคเหนือ,R
PONG  ,ทต.ปง,19.149944,100.2655424,ปง,ปง,พะเยา,แม่น้ำยม,ภาคเหนือ,R
WTBT  ,อบต.วัดโบสถ์,16.9581424,100.337312,วัดโบสถ์,วัดโบสถ์,พิษณุโลก,แม่น้ำน่าน,ภาคเหนือ,R
WCTK  ,โครงการชลประทานพิษณุโลก,16.8150544,100.2599104,ในเมือง,เมืองพิษณุโลก,พิษณุโลก,แม่น้ำน่าน,ภาคเหนือ,R
BRKM  ,ทต.บางระกำเมืองใหม่,16.748904,100.0902784,บางระกำ,บางระกำ,พิษณุโลก,แม่น้ำยม,ภาคเหนือ,R
BWKG  ,อบต.บ้านไร่,16.6107888,100.2658112,บ้านไร่,บางกระทุ่ม,พิษณุโลก,แม่น้ำน่าน,ภาคเหนือ,R
WGPO  ,ลานกีฬา อบต.วังโป่ง,16.3659136,100.8306816,วังโป่ง,วังโป่ง,เพชรบูรณ์,แม่น้ำน่าน,ภาคเหนือ,R
WTLG  ,บ่อบำบัด ทม.พิจิตร,16.4332048,100.3319872,ในเมือง,เมืองพิจิตร,พิจิตร,แม่น้ำน่าน,ภาคเหนือ,R
THTN  ,ทม.ตะพานหิน,16.2110688,100.4194624,ตะพานหิน,ตะพานหิน,พิจิตร,แม่น้ำน่าน,ภาคเหนือ,R
CLPK  ,อบต.ห้วยโก๋น,19.5951616,101.0857472,ห้วยโก๋น,เฉลิมพระเกียรติ,น่าน,แม่น้ำน่าน,ภาคเหนือ,R
PUAA  ,อบต.ไชยวัฒนา,19.2225056,100.9177472,ไชยวัฒนา,ปัว,น่าน,แม่น้ำน่าน,ภาคเหนือ,R
BPTG  ,อบต.หินดาด,14.615048,98.72976,หินดาด,ทองผาภูมิ,กาญจนบุรี,แม่น้ำแม่กลอง,ภาคกลาง,R
SGKW  ,อบต.นาไร่หลวง,19.3671568,100.7007424,นาไร่หลวง,สองแคว,น่าน,แม่น้ำน่าน,ภาคเหนือ,R
STSK  ,อบต.ดู่พงษ์,18.911696,100.941408,ดู่พงษ์,สันติสุข,น่าน,แม่น้ำน่าน,ภาคเหนือ,R
TGCG  ,ที่ว่าการอำเภอทุ่งช้าง,19.3866464,100.8758912,ทุ่งช้าง,ทุ่งช้าง,น่าน,แม่น้ำน่าน,ภาคเหนือ,R
WGSA  ,ทต.กลางเวียง,18.5661856,100.7355136,กลางเวียง,เวียงสา,น่าน,แม่น้ำน่าน,ภาคเหนือ,R
WSPN  ,อบต.วังทรายพูน,16.4061104,100.5386304,วังทรายพูน,วังทรายพูน,พิจิตร,แม่น้ำน่าน,ภาคเหนือ,R
CKLG  ,สำนักงานป้องกันและบรรเทาสาธารณภัย ทต.เชียงกลาง,19.2875008,100.8581184,เชียงกลาง,เชียงกลาง,น่าน,แม่น้ำน่าน,ภาคเหนือ,R
NAMN  ,สนามกีฬา ทต.บ่อแก้ว,18.2104736,100.662432,บ่อแก้ว,นาหมื่น,น่าน,แม่น้ำน่าน,ภาคเหนือ,R
BPGD  ,อบต.เขากระปุก,12.7198728,99.7353984,เขากระปุก,ท่ายาง,เพชรบุรี,แม่น้ำเพชรบุรี,ภาคกลาง,R
KKPA  ,ทต.โกรกพระ,15.5531504,100.0708672,โกรกพระ,โกรกพระ,นครสวรรค์,แม่น้ำเจ้าพระยา,ภาคเหนือ,R
TGLG  ,อบต.ทุ่งแล้ง,17.9705056,99.7466304,ทุ่งแล้ง,ลอง,แพร่,แม่น้ำยม,ภาคเหนือ,R
DKLG  ,อบต.ดอนฉิมพลี,13.90536,100.970304,ดอนฉิมพลี,บางน้ำเปรี้ยว,ฉะเชิงเทรา,แม่น้ำบางปะกง,ภาคกลาง,R
SBRS  ,ทต.บ้านปง,18.750336,98.889728,บ้านปง,หางดง,เชียงใหม่,แม่น้ำปิง,ภาคเหนือ,R
DITO  ,อบต.ดอยเต่า,17.9155216,98.7279424,ดอยเต่า,ดอยเต่า,เชียงใหม่,แม่น้ำปิง,ภาคเหนือ,R
CNDN  ,อบต.ชนแดน,16.1790688,100.901664,ชนแดน,ชนแดน,เพชรบูรณ์,แม่น้ำน่าน,ภาคเหนือ,R
TAKL  ,อบต.ตาดกลอย,17.0035264,101.3660416,ตาดกลอย,หล่มเก่า,เพชรบูรณ์,แม่น้ำป่าสัก,ภาคเหนือ,R
BNTK  ,อบต.ตากออก,17.0602816,99.064992,ตากออก,บ้านตาก,ตาก,แม่น้ำปิง,ภาคเหนือ,R
WCBR  ,ทม.วิเชียรบุรี,15.6573136,101.124768,ท่าโรง,วิเชียรบุรี,เพชรบูรณ์,แม่น้ำป่าสัก,ภาคเหนือ,R
PPCT  ,อบต.พบพระ,16.4163184,98.6871424,พบพระ,พบพระ,ตาก,แม่น้ำสาละวิน,ภาคเหนือ,R
HOTT  ,อบต.หางดง,18.1619776,98.6085824,หางดง,ฮอด,เชียงใหม่,แม่น้ำปิง,ภาคเหนือ,R
PRGB  ,อบต.ปากแคว,17.0140464,99.814208,ปากแคว,เมืองสุโขทัย,สุโขทัย,แม่น้ำยม,ภาคเหนือ,R
THCG  ,ทต.ทุ่งหัวช้าง,18.0034384,99.026912,ทุ่งหัวช้าง,ทุ่งหัวช้าง,ลำพูน,แม่น้ำปิง,ภาคเหนือ,R
SSRG  ,ทต.ศรีสำโรง,17.1682688,99.8726464,สามเรือน,ศรีสำโรง,สุโขทัย,แม่น้ำยม,ภาคเหนือ,R
NMPT  ,ทต.น้ำปาด,17.7253184,100.6814016,แสนตอ,น้ำปาด,อุตรดิตถ์,แม่น้ำน่าน,ภาคเหนือ,R
TGSK  ,ทต.ทองแสนขัน,17.4679088,100.3324672,ป่าคาย,ทองแสนขัน,อุตรดิตถ์,แม่น้ำน่าน,ภาคเหนือ,R
DCCT  ,ทต.เด่นชัย,17.9836368,100.0516864,เด่นชัย,เด่นชัย,แพร่,แม่น้ำยม,ภาคเหนือ,R
WCHN  ,อบต.วังชิ้น,17.878864,99.619232,วังชิ้น,วังชิ้น,แพร่,แม่น้ำยม,ภาคเหนือ,R
MSRM  ,อบต.แม่คง,18.1608096,97.917568,แม่คง,แม่สะเรียง,แม่ฮ่องสอน,แม่น้ำสาละวิน,ภาคเหนือ,R
NMKO  ,อบต.หนองไม้กอง,16.4356768,99.9451136,หนองไม้กอง,ไทรงาม,กำแพงเพชร,แม่น้ำยม,ภาคเหนือ,R
KGLN  ,ทต.คลองลานพัฒนา,16.12252,99.329312,คลองลานพัฒนา,คลองลาน,กำแพงเพชร,แม่น้ำปิง,ภาคเหนือ,R
TETN  ,อบต.แม่ปะ,17.6518064,99.2675712,แม่ปะ,เถิน,ลำปาง,แม่น้ำวัง,ภาคเหนือ,R
PSLT  ,อบต.โพธิ์ทอง,16.1209888,99.5257152,โพธิ์ทอง,ปางศิลาทอง,กำแพงเพชร,แม่น้ำปิง,ภาคเหนือ,R
NKMT  ,อบต.บ่อแฮ้ว,18.3194288,99.4466112,บ่อแฮ้ว,เมืองลำปาง,ลำปาง,แม่น้ำวัง,ภาคเหนือ,R
CGKM  ,ทต.หย่วน,19.5246256,100.3009984,หย่วน,เชียงคำ,พะเยา,แม่น้ำโขง,ภาคเหนือ,R
PHKD  ,อบต.ศรีฐาน,16.8770816,101.861408,ศรีฐาน,ภูกระดึง,เลย,แม่น้ำชี,ภาคตะวันออกเฉียงเหนือ,R
RMMI  ,วัดวังตะเคียน,16.7114288,98.506688,ท่าสายลวด,แม่สอด,ตาก,แม่น้ำสาละวิน,ภาคเหนือ,R
KTKB  ,อบจ.ตาก,16.8778096,99.1396416,ระแหง,เมืองตาก,ตาก,แม่น้ำปิง,ภาคเหนือ,R
PMPN  ,ศูนย์ดูแลผู้สูงอายุ ทต.สามเงา,17.2249056,99.0511424,สามเงา,สามเงา,ตาก,แม่น้ำปิง,ภาคเหนือ,R
BOKA  ,ทต.บ่อเกลือใต้,19.080272,101.1519296,บ่อเกลือใต้,บ่อเกลือ,น่าน,แม่น้ำน่าน,ภาคเหนือ,R
UPCT  ,ทต.อุ้มผาง,16.0177824,98.86512,อุ้มผาง,อุ้มผาง,ตาก,แม่น้ำแม่กลอง,ภาคเหนือ,R
SNKO  ,ทต.ศรีนคร,17.355064,99.9922496,ศรีนคร,ศรีนคร,สุโขทัย,แม่น้ำยม,ภาคเหนือ,R
TSLM  ,ทต.ทุ่งเสลี่ยม,17.3237504,99.5675584,ทุ่งเสลี่ยม,ทุ่งเสลี่ยม,สุโขทัย,แม่น้ำยม,ภาคเหนือ,R
NGBA  ,ทต.หนองบัว,15.8707248,100.5973312,หนองบัว,หนองบัว,นครสวรรค์,แม่น้ำเจ้าพระยา,ภาคเหนือ,R
CGSN  ,ทต.โยนก,20.2400944,100.0673152,โยนก,เชียงแสน,เชียงราย,แม่น้ำกก,ภาคเหนือ,R
TKFA  ,อบต.ตากฟ้า,15.2964704,100.5028096,ตากฟ้า,ตากฟ้า,นครสวรรค์,แม่น้ำเจ้าพระยา,ภาคเหนือ,R
MWOG  ,อบต.แม่วงก์,15.7810048,99.5459136,แม่วงก์,แม่วงก์,นครสวรรค์,แม่น้ำสะแกกรัง,ภาคเหนือ,R
LNSK  ,อบต.ลานสัก,15.4727632,99.53968,ลานสัก,ลานสัก,อุทัยธานี,แม่น้ำสะแกกรัง,ภาคเหนือ,R
PADT  ,ทต.ป่าแดด,19.49596,99.9952832,ป่าแดด,ป่าแดด,เชียงราย,แม่น้ำโขง,ภาคเหนือ,R
BNAN  ,อบต.บ้านกิ่ว,18.087,99.5041152,บ้านกิ่ว,แม่ทะ,ลำปาง,แม่น้ำวัง,ภาคเหนือ,R
NMPR  ,ทต.เนินมะปราง,16.5707248,100.6493632,เนินมะปราง,เนินมะปราง,พิษณุโลก,แม่น้ำน่าน,ภาคเหนือ,R
STOR  ,อบต.สะตอ,12.5361008,102.4445632,สะตอ,เขาสมิง,ตราด,ชายฝั่งทะเลตะวันออก,ภาคกลาง,R
CTKN  ,อบต.ป่าแดง,17.2621568,100.576288,ป่าแดง,ชาติตระการ,พิษณุโลก,แม่น้ำน่าน,ภาคเหนือ,R
SYTL  ,อบต.วังงิ้ว,16.0156544,100.7328256,วังงิ้ว,ดงเจริญ,พิจิตร,แม่น้ำเจ้าพระยา,ภาคเหนือ,R
NSNO  ,อบต.หนองโสน,16.3965104,100.0552384,หนองโสน,สามง่าม,พิจิตร,แม่น้ำยม,ภาคเหนือ,R
PTLE  ,ทต.โพทะเล,16.0937632,100.2600896,โพทะเล,โพทะเล,พิจิตร,แม่น้ำยม,ภาคเหนือ,R
TPKO  ,ทต.ทับคล้อ,16.1696384,100.5660096,ทับคล้อ,ทับคล้อ,พิจิตร,แม่น้ำน่าน,ภาคเหนือ,R
PANC  ,สุสานคริสเตียน,19.5614688,99.741088,เมืองพาน,พาน,เชียงราย,แม่น้ำโขง,ภาคเหนือ,R
FANG  ,อบต.เวียง,19.9410928,99.218112,เวียง,ฝาง,เชียงใหม่,แม่น้ำกก,ภาคเหนือ,R
SNSI  ,ทต.สันนาเม็ง,18.8380768,99.0569152,สันนาเม็ง,สันทราย,เชียงใหม่,แม่น้ำปิง,ภาคเหนือ,R
CPKC  ,ทต.ไชยปราการ,19.7422368,99.1454336,ปงตำ,ไชยปราการ,เชียงใหม่,แม่น้ำกก,ภาคเหนือ,R
TAPE  ,ทต.ช้างเผือก,18.81008,98.9699136,ช้างเผือก,เมืองเชียงใหม่,เชียงใหม่,แม่น้ำปิง,ภาคเหนือ,R
HTTM  ,อบต.ไม้รูด,11.9274512,102.7790656,ไม้รูด,คลองใหญ่,ตราด,ชายฝั่งทะเลตะวันออก,ภาคกลาง,R
BBON  ,อบต.แจ้ซ้อน,18.8169248,99.500032,แจ้ซ้อน,เมืองปาน,ลำปาง,แม่น้ำวัง,ภาคเหนือ,R
CHUN  ,ทต.ห้วยข้าวก่ำ,19.3501008,100.139488,ห้วยข้าวก่ำ,จุน,พะเยา,แม่น้ำโขง,ภาคเหนือ,R
CATK  ,อบต.หนองหญ้า,13.9837856,99.45824,หนองหญ้า,เมืองกาญจนบุรี,กาญจนบุรี,แม่น้ำแม่กลอง,ภาคกลาง,R
HKTG  ,อบต.ศรีมงคล,14.0227312,99.1914752,ศรีมงคล,ไทรโยค,กาญจนบุรี,แม่น้ำแม่กลอง,ภาคกลาง,R
BOP1  ,อบต.บ่อพลอย,14.3044784,99.5088704,บ่อพลอย,บ่อพลอย,กาญจนบุรี,แม่น้ำแม่กลอง,ภาคกลาง,R
THNG  ,ทต.เวียงเทิง,19.687376,100.1899264,เวียง,เทิง,เชียงราย,แม่น้ำโขง,ภาคเหนือ,R
DDSO  ,อบต.ไล่โว่,15.187624,98.4771456,ไล่โว่,สังขละบุรี,กาญจนบุรี,แม่น้ำแม่กลอง,ภาคกลาง,R
CHTG  ,อบต.เจาทอง,15.9069184,101.4275264,เจาทอง,ภักดีชุมพล,ชัยภูมิ,แม่น้ำชี,ภาคตะวันออกเฉียงเหนือ,R
NSRS  ,โรงปรับปรุงคุณภาพน้ำฯ ทน.นครสวรรค์,15.698576,100.1369024,ปากน้ำโพ,เมืองนครสวรรค์,นครสวรรค์,แม่น้ำเจ้าพระยา,ภาคเหนือ,R
CMSG  ,อบต.พิกุล,15.898448,100.307744,พิกุล,ชุมแสง,นครสวรรค์,แม่น้ำน่าน,ภาคเหนือ,R
KUBR  ,ทต.กุยบุรี,12.0700832,99.8673024,กุยบุรี,กุยบุรี,ประจวบคีรีขันธ์,ชายฝั่งทะเลประจวบคีรีขันธ์,ภาคกลาง,R
OMKI  ,อบต.อมก๋อย,17.7979136,98.341472,อมก๋อย,อมก๋อย,เชียงใหม่,แม่น้ำปิง,ภาคเหนือ,R
BSVT  ,ทต.ร่อนทอง,11.2633088,99.4381632,ร่อนทอง,บางสะพาน,ประจวบคีรีขันธ์,ชายฝั่งทะเลประจวบคีรีขันธ์,ภาคกลาง,R
DSKT  ,ทต.ดอยสะเก็ด,18.8647776,99.1322624,เชิงดอย,ดอยสะเก็ด,เชียงใหม่,แม่น้ำปิง,ภาคเหนือ,R
WGKN  ,ทต.หล่ายงาว,20.1057888,100.5004352,หล่ายงาว,เวียงแก่น,เชียงราย,แม่น้ำโขง,ภาคเหนือ,R
BLKO  ,ทต.ท่าพริกเนินทราย,12.2549032,102.558272,เนินทราย,เมืองตราด,ตราด,ชายฝั่งทะเลตะวันออก,ภาคกลาง,R
RSK7  ,รร.วัดอู่ข้าว,14.1911296,100.7542272,คลองเจ็ด,คลองหลวง,ปทุมธานี,แม่น้ำเจ้าพระยา,ภาคกลาง,R
BNGR  ,อบต.หนองไร่,13.0019104,101.3564416,หนองไร่,ปลวกแดง,ระยอง,ชายฝั่งทะเลตะวันออก,ภาคกลาง,R
TPTN  ,ทต.ทัพทัน,15.457664,99.8948096,ทัพทัน,ทัพทัน,อุทัยธานี,แม่น้ำสะแกกรัง,ภาคเหนือ,R
PPRM  ,อบต.พรหมพิราม,17.021656,100.192128,พรหมพิราม,พรหมพิราม,พิษณุโลก,แม่น้ำน่าน,ภาคเหนือ,R
NTAN  ,อบต.นาตาล,15.9017088,105.2787264,นาตาล,นาตาล,อุบลราชธานี,แม่น้ำโขง,ภาคตะวันออกเฉียงเหนือ,R
NKTI  ,ทต.นครไทย,17.1010128,100.829152,นครไทย,นครไทย,พิษณุโลก,แม่น้ำน่าน,ภาคเหนือ,R
KKWF  ,อบต.ปังเผล,14.953016,98.6183104,ปรังเผล,สังขละบุรี,กาญจนบุรี,แม่น้ำแม่กลอง,ภาคกลาง,R
WGTG  ,ที่ทำการผู้ใหญ่บ้าน หมู่ 13 ต.วังทอง,16.831776,100.4288704,วังทอง,วังทอง,พิษณุโลก,แม่น้ำน่าน,ภาคเหนือ,R
SWKL  ,โรงฆ่าสัตว์ ทม.สวรรคโลก,17.3167664,99.8251456,เมืองสวรรคโลก,สวรรคโลก,สุโขทัย,แม่น้ำยม,ภาคเหนือ,R
PMPA  ,อบต.ปางมะผ้า,19.5906624,98.2150336,ปางมะผ้า,ปางมะผ้า,แม่ฮ่องสอน,แม่น้ำสาละวิน,ภาคเหนือ,R
PVEE  ,ทต.ปัถวี,12.7426512,102.2326016,ปัถวี,มะขาม,จันทบุรี,ชายฝั่งทะเลตะวันออก,ภาคกลาง,R
TKNT  ,ทต.ตะเคียนทอง,12.913068,102.0813696,ตะเคียนทอง,เขาคิชฌกูฏ,จันทบุรี,ชายฝั่งทะเลตะวันออก,ภาคกลาง,R
KHHM  ,อบต.เทพนิมิต,13.040304,102.4495616,เทพนิมิต,โป่งน้ำร้อน,จันทบุรี,โตนเลสาป,ภาคกลาง,R
BNKN  ,ทต.พลิ้ว,12.4999384,102.147584,พลิ้ว,แหลมสิงห์,จันทบุรี,ชายฝั่งทะเลตะวันออก,ภาคกลาง,R
LK13  ,บ้านน้อยสว่าง,14.1651856,100.77856,บึงชำอ้อ,หนองเสือ,ปทุมธานี,แม่น้ำเจ้าพระยา,ภาคกลาง,R
KSNG  ,อบต.ขุนซ่อง,13.0740432,101.9376,ขุนซ่อง,แก่งหางแมว,จันทบุรี,ชายฝั่งทะเลตะวันออก,ภาคกลาง,R
NMUB  ,อบต.น้ำมวบ,18.484216,100.9307712,น้ำมวบ,เวียงสา,น่าน,แม่น้ำน่าน,ภาคเหนือ,R
BTTI  ,อบต.เทอดไทย,20.2398656,99.6664064,เทอดไทย,แม่ฟ้าหลวง,เชียงราย,แม่น้ำโขง,ภาคเหนือ,R
HCTT  ,อบต.หนองหล่ม,18.3362624,99.3999104,หนองหล่ม,ห้างฉัตร,ลำปาง,แม่น้ำวัง,ภาคเหนือ,R
PYMR  ,ทต.พญาเม็งราย,19.839256,100.1692416,เม็งราย,พญาเม็งราย,เชียงราย,แม่น้ำโขง,ภาคเหนือ,R
BMKO  ,อบต.ไม้ขาว,8.1820064,98.2989056,ไม้ขาว,ถลาง,ภูเก็ต,ภาคใต้ฝั่งตะวันตก,ภาคใต้,R
TKRA  ,อบต.คลองเฉลิม,7.3824304,99.98016,คลองเฉลิม,กงหรา,พัทลุง,ทะเลสาบสงขลา,ภาคใต้,R
KOKN  ,อบต.โคคลาน,13.991088,102.6506816,โคคลาน,ตาพระยา,สระแก้ว,โตนเลสาป,ภาคกลาง,R
SKBI  ,อบต.หนองลู,15.1955248,98.4612096,หนองลู,สังขละบุรี,กาญจนบุรี,แม่น้ำแม่กลอง,ภาคกลาง,R
BMNK  ,เทศบาลตำบลหอไกร,16.0501104,100.3737152,หอไกร,บางมูลนาก,พิจิตร,แม่น้ำน่าน,ภาคเหนือ,R
NANT  ,อบจ.น่าน,18.7990608,100.7331584,ในเวียง,เมืองน่าน,น่าน,แม่น้ำน่าน,ภาคเหนือ,R
NPNK  ,อบต.หนองผักนาก,14.7644736,100.0194432,หนองผักนาก,สามชุก,สุพรรณบุรี,แม่น้ำท่าจีน,ภาคกลาง,R
MCRM  ,รพสต.หมอเมือง,18.6781616,100.9927872,หมอเมือง,แม่จริม,น่าน,แม่น้ำน่าน,ภาคเหนือ,R
BNPK  ,อบต.บางครก,13.1986664,99.9505664,บางครก,บ้านแหลม,เพชรบุรี,แม่น้ำเพชรบุรี,ภาคกลาง,R
KCWF  ,ทต.สวนผึ้ง,13.5449264,99.3383936,สวนผึ้ง,สวนผึ้ง,ราชบุรี,แม่น้ำแม่กลอง,ภาคกลาง,R
BLUG  ,สนามกีฬา อบต.ป่าคาหลวง,18.8528688,100.4350336,ป่าคาหลวง,บ้านหลวง,น่าน,แม่น้ำยม,ภาคเหนือ,R
NANI  ,อบต.นาน้อย,18.3281328,100.7087104,นาน้อย,นาน้อย,น่าน,แม่น้ำน่าน,ภาคเหนือ,R
TANA  ,อบต.นครชัยศรี,13.7903424,100.1904896,นครชัยศรี,นครชัยศรี,นครปฐม,แม่น้ำท่าจีน,ภาคกลาง,R
KKTO  ,ทต.ลำปางหลวง,18.230336,99.3912256,ลำปางหลวง,เกาะคา,ลำปาง,แม่น้ำวัง,ภาคเหนือ,R
MPBR  ,ทต.ปราณบุรี,12.3783984,99.8933312,หนองตาแต้ม,ปราณบุรี,ประจวบคีรีขันธ์,ชายฝั่งทะเลประจวบคีรีขันธ์,ภาคกลาง,R
WWST  ,วัดเนินสวรรค์มงคลธรรม,12.4164488,99.8178112,หนองตาแต้ม,ปราณบุรี,ประจวบคีรีขันธ์,ชายฝั่งทะเลประจวบคีรีขันธ์,ภาคกลาง,R
HHMV  ,อบต.ทับใต้,12.4903008,99.9043712,ทับใต้,หัวหิน,ประจวบคีรีขันธ์,ชายฝั่งทะเลประจวบคีรีขันธ์,ภาคกลาง,R
TLMU  ,ทต.ลำแก่น,8.5967272,98.2573504,ลำแก่น,ท้ายเหมือง,พังงา,ภาคใต้ฝั่งตะวันตก,ภาคใต้,R
LMKD  ,อบต.คลองขนาน,8.0053056,99.0138816,คลองขนาน,เหนือคลอง,กระบี่,ภาคใต้ฝั่งตะวันตก,ภาคใต้,R
NTST  ,อบต.ท่าเสา,14.2160096,99.0813184,ท่าเสา,ไทรโยค,กาญจนบุรี,แม่น้ำแม่กลอง,ภาคกลาง,R
KTUM  ,อบต.เขาตูม,6.6191304,101.3067136,เขาตูม,ยะรัง,ปัตตานี,แม่น้ำปัตตานี,ภาคใต้,R
BST1  ,อบต.ศีรษะจรเข้น้อย,13.67776,100.794528,ศีรษะจรเข้น้อย,บางเสาธง,สมุทรปราการ,แม่น้ำบางปะกง,ภาคกลาง,R
MMMO  ,ทต.แม่เมาะ,18.272936,99.6516096,แม่เมาะ,แม่เมาะ,ลำปาง,แม่น้ำวัง,ภาคเหนือ,R
TPAE  ,ทต.ท่าขนุน,14.7440608,98.6423872,ท่าขนุน,ทองผาภูมิ,กาญจนบุรี,แม่น้ำแม่กลอง,ภาคกลาง,R
NAPJ  ,อบต.ทุ่งกระบ่ำ,14.5887568,99.6350656,ทุ่งกระบ่ำ,เลาขวัญ,กาญจนบุรี,แม่น้ำท่าจีน,ภาคกลาง,R
KHNI  ,อบต.บ้านเสด็จ,8.7635688,99.06464,บ้านเสด็จ,เคียนซา,สุราษฎร์ธานี,แม่น้ำตาปี,ภาคใต้,R
BUGN  ,ร.ร.บ้านอังโกน-ห้วยทราย,14.4960752,102.2472256,บ้านใหม่,ครบุรี,นครราชสีมา,แม่น้ำมูล,ภาคตะวันออกเฉียงเหนือ,R
NOKG  ,อบต.หนองโพธิ์,15.7743248,103.1028416,หนองโพธิ์,นาเชือก,มหาสารคาม,แม่น้ำมูล,ภาคตะวันออกเฉียงเหนือ,R
BKNH  ,อบต.ราษฎร์นิยม,14.1038624,100.32208,ราษฎร์นิยม,ไทรน้อย,นนทบุรี,แม่น้ำเจ้าพระยา,ภาคกลาง,R
MNDM  ,เขื่อนแม่งัดสมบูรณ์ชล,19.1617664,99.0396864,ช่อแล,แม่แตง,เชียงใหม่,แม่น้ำปิง,ภาคเหนือ,R
KUAM  ,อบต.สบแม่ข่า,18.6779616,98.977152,สบแม่ข่า,หางดง,เชียงใหม่,แม่น้ำปิง,ภาคเหนือ,R
CHKG  ,อบต.ช่างเคิ่ง,18.5066656,98.3523136,ช่างเคิ่ง,แม่แจ่ม,เชียงใหม่,แม่น้ำปิง,ภาคเหนือ,R
NOKK  ,อบต.หนองขนาก,14.5141904,100.735232,หนองขนาก,ท่าเรือ,พระนครศรีอยุธยา,แม่น้ำเจ้าพระยา,ภาคกลาง,R
LMKO  ,อบต.หล่มเก่า,16.8807056,101.238368,หล่มเก่า,หล่มเก่า,เพชรบูรณ์,แม่น้ำป่าสัก,ภาคเหนือ,R
TAKI  ,อบต.ตาคลี,15.2912048,100.3829056,ตาคลี,ตาคลี,นครสวรรค์,แม่น้ำเจ้าพระยา,ภาคเหนือ,R
PICI  ,อบต.ในเมือง,17.295936,100.1006784,ในเมือง,พิชัย,อุตรดิตถ์,แม่น้ำน่าน,ภาคเหนือ,R
PKH1  ,ที่ทำการกำนันตำบลลาดชิด,14.4414288,100.355648,ลาดชิด,ผักไห่,พระนครศรีอยุธยา,แม่น้ำเจ้าพระยา,ภาคกลาง,R
SWH1  ,อบต.บ้านพราน,14.7021536,100.2981952,บ้านพราน,แสวงหา,อ่างทอง,แม่น้ำเจ้าพระยา,ภาคกลาง,R
WSPR  ,ทต.โคกตูม,14.8126576,100.7899264,โคกตูม,เมืองลพบุรี,ลพบุรี,แม่น้ำเจ้าพระยา,ภาคกลาง,R
LMSK  ,ทต.ตาลเดี่ยว,16.7713424,101.253664,ตาลเดี่ยว,หล่มสัก,เพชรบูรณ์,แม่น้ำป่าสัก,ภาคเหนือ,R
KOKO  ,อบต.ทุ่งสมอ,16.7050176,101.044064,ทุ่งสมอ,เขาค้อ,เพชรบูรณ์,แม่น้ำน่าน,ภาคเหนือ,R
NMKH  ,อบต.หนองมะค่า,15.4321584,100.92448,หนองมะค่า,โคกเจริญ,ลพบุรี,แม่น้ำป่าสัก,ภาคกลาง,R
PCHI  ,อบต.โพธิ์ชัย,14.9971808,100.4235904,โพธิ์ชัย,อินทร์บุรี,สิงห์บุรี,แม่น้ำเจ้าพระยา,ภาคกลาง,R
LMPN  ,สวนสาธารณะกู่ช้าง ทต.ลำพูน,18.5863968,99.0194816,ในเมือง,เมืองลำพูน,ลำพูน,แม่น้ำปิง,ภาคเหนือ,R
TRON  ,ทต.ตรอน,17.486112,100.1056256,วังแดง,ตรอน,อุตรดิตถ์,แม่น้ำน่าน,ภาคเหนือ,R
BNKK  ,ทต.บ้านโคก,18.021032,101.0647616,บ้านโคก,บ้านโคก,อุตรดิตถ์,แม่น้ำน่าน,ภาคเหนือ,R
MNRM  ,ทต.คุ้งสำเภา,15.3100304,100.081728,คุ้งสำเภา,มโนรมย์,ชัยนาท,แม่น้ำเจ้าพระยา,ภาคกลาง,R
HUKT  ,ทต.สรรพยา,15.1321296,100.2512832,สรรพยา,สรรพยา,ชัยนาท,แม่น้ำเจ้าพระยา,ภาคกลาง,R
KABG  ,อบต.กาบัง,6.480274,100.982688,กาบัง,กาบัง,ยะลา,ภาคใต้ฝั่งตะวันออก,ภาคใต้,R
LDKS  ,อบต.นากอก,16.8967984,102.201664,นากอก,ศรีบุญเรือง,หนองบัวลำภู,แม่น้ำชี,ภาคตะวันออกเฉียงเหนือ,R
PLTL  ,อบต.พลูตาหลวง,12.6986,100.976224,พลูตาหลวง,สัตหีบ,ชลบุรี,ชายฝั่งทะเลตะวันออก,ภาคกลาง,R
NGSC  ,อบต.บ่อทอง,13.2416632,101.4882816,บ่อทอง,บ่อทอง,ชลบุรี,แม่น้ำบางปะกง,ภาคกลาง,R
BLNG  ,อบต.บ้านแลง,12.7002104,101.3347136,บ้านแลง,เมืองระยอง,ระยอง,ชายฝั่งทะเลตะวันออก,ภาคกลาง,R
BSIK  ,อบต.เขาหลวง,17.3174128,101.6353472,เขาหลวง,วังสะพุง,เลย,แม่น้ำโขง,ภาคตะวันออกเฉียงเหนือ,R
BKJO  ,อบต.บางกระเจ้า,13.5214368,100.192864,บางกระเจ้า,เมืองสมุทรสาคร,สมุทรสาคร,แม่น้ำท่าจีน,ภาคกลาง,R
BYNU  ,ทต.ราไวย์,7.770784,98.3187456,ราไวย์,เมืองภูเก็ต,ภูเก็ต,ภาคใต้ฝั่งตะวันตก,ภาคใต้,R
BKHL  ,ทต.บึงโขงหลง,17.968,104.0494656,บึงโขงหลง,บึงโขงหลง,บึงกาฬ,แม่น้ำโขง,ภาคตะวันออกเฉียงเหนือ,R
MMNY  ,อบต.นายายอาม,12.7708392,101.852992,นายายอาม,นายายอาม,จันทบุรี,ชายฝั่งทะเลตะวันออก,ภาคกลาง,R
MEPK  ,อบต.แม่พริก,17.455208,99.1186432,แม่พริก,แม่พริก,ลำปาง,แม่น้ำวัง,ภาคเหนือ,R
NBON  ,ทต.หนองบอน,12.6770904,102.4595264,หนองบอน,บ่อไร่,ตราด,ชายฝั่งทะเลตะวันออก,ภาคกลาง,R
NGNG  ,อบต.หนองแหน,13.683344,101.3251136,หนองแหน,พนมสารคาม,ฉะเชิงเทรา,แม่น้ำบางปะกง,ภาคกลาง,R
LPLE  ,ทต.ศรีพนมมาศ,17.6545616,100.0358272,ศรีพนมมาศ,ลับแล,อุตรดิตถ์,แม่น้ำน่าน,ภาคเหนือ,R
NKOK  ,อบต.คลองตะเกรา,13.4199232,101.6410496,คลองตะเกรา,ท่าตะเกียบ,ฉะเชิงเทรา,แม่น้ำบางปะกง,ภาคกลาง,R
MKKB  ,รพสต.บ้านโคกอุดม,14.069488,101.8099136,หนองกี่,กบินทร์บุรี,ปราจีนบุรี,แม่น้ำปราจีนบุรี,ภาคกลาง,R
WTCH  ,อบต.วังท่าช้าง,13.7594288,101.886944,วังท่าช้าง,กบินทร์บุรี,ปราจีนบุรี,แม่น้ำปราจีนบุรี,ภาคกลาง,R
TLAN  ,อบต.บุพราหมณ์,14.2078768,101.9055936,บุพราหมณ์,นาดี,ปราจีนบุรี,แม่น้ำปราจีนบุรี,ภาคกลาง,R
RBPI  ,ทต.กรอกสมบูรณ์,13.7748944,101.6585024,กรอกสมบูรณ์,ศรีมหาโพธิ,ปราจีนบุรี,แม่น้ำปราจีนบุรี,ภาคกลาง,R
BHUN  ,อบต.นาหินลาด,14.2072752,101.3506304,นาหินลาด,ปากพลี,นครนายก,แม่น้ำปราจีนบุรี,ภาคกลาง,R
NIKS  ,อบต.นิคมกระเสียว,14.8573408,99.5750784,นิคมกระเสียว,ด่านช้าง,สุพรรณบุรี,แม่น้ำท่าจีน,ภาคกลาง,R
KYKT  ,ทต.เจดีย์,14.384216,99.9611456,เจดีย์,อู่ทอง,สุพรรณบุรี,แม่น้ำท่าจีน,ภาคกลาง,R
BCAP  ,อบต.หนองญ้าปล้อง,13.1699512,99.687744,หนองหญ้าปล้อง,หนองหญ้าปล้อง,เพชรบุรี,แม่น้ำเพชรบุรี,ภาคกลาง,R
PKTG  ,อบต.บ้านบึง,13.3363264,99.4502272,บ้านบึง,บ้านคา,ราชบุรี,แม่น้ำแม่กลอง,ภาคกลาง,R
KKCN  ,อบต.สองพี่น้อง,12.8723,99.6835456,สองพี่น้อง,แก่งกระจาน,เพชรบุรี,แม่น้ำเพชรบุรี,ภาคกลาง,R
SNGT  ,อบต.บ้านกลาง,18.4820128,100.1775424,บ้านกลาง,สอง,แพร่,แม่น้ำยม,ภาคเหนือ,R
PAII  ,บ้านสันติชล,19.3700944,98.3930624,เวียงใต้,ปาย,แม่ฮ่องสอน,แม่น้ำสาละวิน,ภาคเหนือ,R
YKPC  ,อบต.เกาะหลัก,11.8029832,99.7545856,เกาะหลัก,เมืองประจวบคีรีขันธ์,ประจวบคีรีขันธ์,ชายฝั่งทะเลประจวบคีรีขันธ์,ภาคกลาง,R
YCUM  ,วัดยางชุม,12.0990232,99.7065152,หาดขาม,กุยบุรี,ประจวบคีรีขันธ์,ชายฝั่งทะเลประจวบคีรีขันธ์,ภาคกลาง,R
BSPN  ,ทต.บางสะพานน้อย,11.0761792,99.445312,บางสะพาน,บางสะพานน้อย,ประจวบคีรีขันธ์,ชายฝั่งทะเลประจวบคีรีขันธ์,ภาคกลาง,R
PALU  ,อบต.ห้วยสัตว์ใหญ่,12.5294104,99.5437952,ห้วยสัตว์ใหญ่,หัวหิน,ประจวบคีรีขันธ์,ชายฝั่งทะเลประจวบคีรีขันธ์,ภาคกลาง,R
KOSR  ,อบต.เกาะสำโรง,13.9423456,99.4963136,เกาะสำโรง,เมืองกาญจนบุรี,กาญจนบุรี,แม่น้ำแม่กลอง,ภาคกลาง,R
SPMI  ,อบต.แม่สวด,17.9631456,97.9316352,แม่สวด,สบเมย,แม่ฮ่องสอน,แม่น้ำสาละวิน,ภาคเหนือ,R
WSTG  ,รร.บ้านไทรทอง,13.8233536,99.2846656,จรเข้เผือก,ด่านมะขามเตี้ย,กาญจนบุรี,แม่น้ำแม่กลอง,ภาคกลาง,R
BHMN  ,อบต.ห้วยมุ่น,17.8091584,100.9394624,ห้วยมุ่น,น้ำปาด,อุตรดิตถ์,แม่น้ำน่าน,ภาคเหนือ,R
BTWN  ,รร.วัดทายิการาม,8.0821288,100.1642432,การะเกด,เชียรใหญ่,นครศรีธรรมราช,ภาคใต้ฝั่งตะวันออก,ภาคใต้,R
KTLE  ,อบต.ขุนทะเล,8.3388344,99.8520896,ขุนทะเล,ลานสกา,นครศรีธรรมราช,ภาคใต้ฝั่งตะวันออก,ภาคใต้,R
STWN  ,ทต.ทุ่งทราย,16.2950736,99.808992,ทุ่งทราย,ทรายทองวัฒนา,กำแพงเพชร,แม่น้ำน่าน,ภาคเหนือ,R
PPCH  ,อบต.แหลมฟ้าผ่า,13.5469984,100.537632,แหลมฟ้าผ่า,พระสมุทรเจดีย์,สมุทรปราการ,แม่น้ำเจ้าพระยา,ภาคกลาง,R
KPPT  ,อบจ.กำแพงเพชร,16.4109168,99.5219136,อ่างทอง,เมืองกำแพงเพชร,กำแพงเพชร,แม่น้ำปิง,ภาคเหนือ,R
KGKG  ,อบต.คลองขลุง,16.2087008,99.7089472,คลองขลุง,คลองขลุง,กำแพงเพชร,แม่น้ำปิง,ภาคเหนือ,R
KAOP  ,อบต.เขาพระ,7.0801592,100.1883264,เขาพระ,รัตภูมิ,สงขลา,ทะเลสาบสงขลา,ภาคใต้,R
HNKA  ,ทต.หันคา,14.969648,100.0103936,หันคา,หันคา,ชัยนาท,แม่น้ำท่าจีน,ภาคกลาง,R
CMKK  ,ทม.ทับกวาง,14.6088224,101.0764736,ทับกวาง,แก่งคอย,สระบุรี,แม่น้ำป่าสัก,ภาคกลาง,R
PKTI  ,ทต.พรานกระต่าย,16.653768,99.5757824,พรานกระต่าย,พรานกระต่าย,กำแพงเพชร,แม่น้ำยม,ภาคเหนือ,R
WGYG  ,อบต.วังม่วง,14.8486544,101.145504,วังม่วง,วังม่วง,สระบุรี,แม่น้ำป่าสัก,ภาคกลาง,R
LKBU  ,อบต.ลานกระบือ,16.618064,99.880032,ลานกระบือ,ลานกระบือ,กำแพงเพชร,แม่น้ำยม,ภาคเหนือ,R
KRKM  ,อบต.บางปิด,12.2171888,102.30768,บางปิด,แหลมงอบ,ตราด,ชายฝั่งทะเลตะวันออก,ภาคกลาง,R
BKWN  ,อบต.บางขวัญ,13.7498688,101.0774912,บางขวัญ,เมืองฉะเชิงเทรา,ฉะเชิงเทรา,แม่น้ำบางปะกง,ภาคกลาง,R
RFBK  ,ทต.ท่าข้าม,13.4785664,100.9939584,ท่าข้าม,บางปะกง,ฉะเชิงเทรา,แม่น้ำบางปะกง,ภาคกลาง,R
THNM  ,อบต.ดงพระรามณ์,14.0627056,101.413664,ดงพระราม,เมืองปราจีนบุรี,ปราจีนบุรี,แม่น้ำปราจีนบุรี,ภาคกลาง,R
NPSD  ,อบต.ท่าแยก,13.907776,102.0939072,ท่าแยก,เมืองสระแก้ว,สระแก้ว,แม่น้ำปราจีนบุรี,ภาคกลาง,R
TUKW  ,อบต.ทุ่งคาวัด,9.741116,99.0264896,ทุ่งคาวัด,ละแม,ชุมพร,ภาคใต้ฝั่งตะวันออก,ภาคใต้,R
STH013,รร.ตชด.บ้านไอร์บือแต,6.0487964,101.569792,ช้างเผือก,จะแนะ,นราธิวาส,ภาคใต้ฝั่งตะวันออก,ภาคใต้,R
STH024,ปตร.พรุสนอ,6.8628664,101.3774912,ยามู,ยะหริ่ง,ปัตตานี,ภาคใต้ฝั่งตะวันออก,ภาคใต้,R
STH020,ปตร.ตุยง,6.8359824,101.172064,ตุยง,หนองจิก,ปัตตานี,ภาคใต้ฝั่งตะวันออก,ภาคใต้,R
STH012,ศูนย์วิจัยข้าวปัตตานี,6.7541744,101.1333504,มะกรูด,โคกโพธิ์,ปัตตานี,ภาคใต้ฝั่งตะวันออก,ภาคใต้,R
STH010,ทต.สุไหงโก-ลก,6.0051076,101.9581312,สุไหงโก-ลก,สุไหงโกลก,นราธิวาส,ภาคใต้ฝั่งตะวันออก,ภาคใต้,R
STH022,สวนสาธารณะ ทต.รือเสาะ,6.3879552,101.5171584,รือเสาะ,รือเสาะ,นราธิวาส,ภาคใต้ฝั่งตะวันออก,ภาคใต้,R
STH016,สถานีพัฒนาที่ดินยะลา,6.1703572,101.1808256,ธารโต,ธารโต,ยะลา,แม่น้ำปัตตานี,ภาคใต้,R
STH027,ที่ว่าการอำเภอไม้แก่น,6.6104696,101.6675072,ไทรทอง,ไม้แก่น,ปัตตานี,ภาคใต้ฝั่งตะวันออก,ภาคใต้,R
STH005,ทต.ตันหยงมัส,6.29461,101.7236864,ตันหยงมัส,ระแงะ,นราธิวาส,ภาคใต้ฝั่งตะวันออก,ภาคใต้,R
STH015,สถานีฟาร์มตัวอย่างฯ บ้านลุตง,6.6578276,101.246304,ปากล่อ,โคกโพธิ์,ปัตตานี,แม่น้ำปัตตานี,ภาคใต้,R
STH011,ที่ว่าการอำเภอยี่งอ,6.4034432,101.7068352,ยี่งอ,ยี่งอ,นราธิวาส,ภาคใต้ฝั่งตะวันออก,ภาคใต้,R
STH009,ทต.ปะลุรู,6.08832,101.872992,ปะลุรู,สุไหงปาดี,นราธิวาส,ภาคใต้ฝั่งตะวันออก,ภาคใต้,R
STH007,ทม.ตากใบ,6.2391452,102.083712,เจ๊ะเห,ตากใบ,นราธิวาส,ภาคใต้ฝั่งตะวันออก,ภาคใต้,R
STH019,หน่วยบริการประปาศรีสาคร (กปภ.สาขารือเสาะ),6.2226472,101.5023424,ศรีสาคร,ศรีสาคร,นราธิวาส,ภาคใต้ฝั่งตะวันออก,ภาคใต้,R
STH021,ทต.แว้ง,5.93333,101.8820864,แว้ง,แว้ง,นราธิวาส,ภาคใต้ฝั่งตะวันออก,ภาคใต้,R
STH031,รพ.สต.บ้านวังไทร,6.0092896,101.268,แม่หวาด,ธารโต,ยะลา,แม่น้ำปัตตานี,ภาคใต้,R
STH014,ที่ว่าการอำเภอสุคีริน,5.9401704,101.771392,สุคิริน,สุคิริน,นราธิวาส,ภาคใต้ฝั่งตะวันออก,ภาคใต้,R
STH023,ทต.บาเจาะ,6.5191372,101.6587456,บาเจาะ,บาเจาะ,นราธิวาส,ภาคใต้ฝั่งตะวันออก,ภาคใต้,R
STH017,โครงการชลประทานยะลา,6.5374,101.2593856,สะเตง,เมืองยะลา,ยะลา,แม่น้ำปัตตานี,ภาคใต้,R
STH001,ทต.มายอ,6.7181368,101.4140672,มายอ,มายอ,ปัตตานี,ภาคใต้ฝั่งตะวันออก,ภาคใต้,R
STH002,โครงการฟาร์มตัวอย่างฯ บ้านป่าตาเขียว,6.8429768,101.4945664,ท่าข้าม,ปะนาเระ,ปัตตานี,ภาคใต้ฝั่งตะวันออก,ภาคใต้,R
STH029,สำนักงานเกษตรอำเภอทุ่งยางแดง,6.61703,101.426688,ตะโละแมะนา,ทุ่งยางแดง,ปัตตานี,ภาคใต้ฝั่งตะวันออก,ภาคใต้,R
STH030,ทต.ยะรัง,6.7641648,101.3006336,ยะรัง,ยะรัง,ปัตตานี,ภาคใต้ฝั่งตะวันออก,ภาคใต้,R
STH025,สำนักงานเกษตรอำเภอเจาะไอร้อง,6.2241992,101.8110336,จวบ,เจาะไอร้อง,นราธิวาส,ภาคใต้ฝั่งตะวันออก,ภาคใต้,R
STH003,ที่ว่าการอำเภอรามัน,6.4789992,101.424064,กายูบอเกาะ,รามัน,ยะลา,ภาคใต้ฝั่งตะวันออก,ภาคใต้,R
STH008,ที่ว่าการอำเภอกาบัง,6.4270476,101.0193152,กาบัง,กาบัง,ยะลา,ภาคใต้ฝั่งตะวันออก,ภาคใต้,R
STH018,ที่ว่าการอำเภอกรงปินัง,6.4108896,101.273632,สะเอะ,กรงปินัง,ยะลา,แม่น้ำปัตตานี,ภาคใต้,R
STH026,ที่ว่าการอำเภอจะแนะ,6.0984256,101.6939904,จะแนะ,จะแนะ,นราธิวาส,ภาคใต้ฝั่งตะวันออก,ภาคใต้,R
STH004,สถานีตำรวจภูธรกะพ้อ,6.5601144,101.5340864,กะรุบี,กะพ้อ,ปัตตานี,ภาคใต้ฝั่งตะวันออก,ภาคใต้,R
STH006,อบต.บานา,6.8912312,101.2647424,บานา,เมืองปัตตานี,ปัตตานี,ภาคใต้ฝั่งตะวันออก,ภาคใต้,R
WAN001,สามเงา,17.260568,99.0780032,วังหมัน,สามเงา,ตาก,แม่น้ำวัง,ภาคเหนือ,W
PIN005,เก้าเลี้ยว,15.8505744,100.052032,หัวดง,เก้าเลี้ยว,นครสวรรค์,แม่น้ำปิง,ภาคเหนือ,W
YOM005,ศรีสัชนาลัย,17.5171504,99.7587584,หาดเสี้ยว,ศรีสัชนาลัย,สุโขทัย,แม่น้ำยม,ภาคเหนือ,W
PIN004,ขาณุวรลักษบุรี,16.0647808,99.8603072,ป่าพุทรา,ขาณุวรลักษบุรี,กำแพงเพชร,แม่น้ำปิง,ภาคเหนือ,W
MUN002,เฉลิมพระเกียรติ,14.9679984,102.2378816,หนองยาง,เฉลิมพระเกียรติ,นครราชสีมา,แม่น้ำมูล,ภาคตะวันออกเฉียงเหนือ,W
NAN005,แม่น้ำเข็ก (ว้งทอง),16.855008,100.6668032,วังนกแอ่น,วังทอง,พิษณุโลก,แม่น้ำน่าน,ภาคเหนือ,W
MUN003,ชุมพวง,15.2870016,102.6846784,ท่าลาด,ชุมพวง,นครราชสีมา,แม่น้ำมูล,ภาคตะวันออกเฉียงเหนือ,W
NAN003,เมืองน่าน,18.7380144,100.7560896,ท่าน้าว,ภูเพียง,น่าน,แม่น้ำน่าน,ภาคเหนือ,W
YOM007,กงไกรลาศ,16.927288,99.9594112,กง,กงไกรลาศ,สุโขทัย,แม่น้ำยม,ภาคเหนือ,W
CHI003,เมืองชัยภูมิ,15.6816048,102.0095232,บ้านค่าย,เมืองชัยภูมิ,ชัยภูมิ,แม่น้ำชี,ภาคตะวันออกเฉียงเหนือ,W
CHI006,เมืองขอนแก่น,16.325944,102.7859904,ท่าพระ,เมืองขอนแก่น,ขอนแก่น,แม่น้ำชี,ภาคตะวันออกเฉียงเหนือ,W
WAN002,แม่พริก,17.4452128,99.12896,แม่พริก,แม่พริก,ลำปาง,แม่น้ำวัง,ภาคเหนือ,W
TPI001,พุนพิน 1,9.1312432,99.2587904,ท่าข้าม,พุนพิน,สุราษฎร์ธานี,แม่น้ำตาปี,ภาคใต้,W
PAT001,บันนังสตา,6.262154,101.2682816,บันนังสตา,บันนังสตา,ยะลา,แม่น้ำปัตตานี,ภาคใต้,W
NAN002,ภูเพียง,18.859704,100.817184,เมืองจัง,ภูเพียง,น่าน,แม่น้ำน่าน,ภาคเหนือ,W
YOM009,โพธิ์ประทับช้าง,16.3107888,100.2717632,โพธิ์ประทับช้าง,โพธิ์ประทับช้าง,พิจิตร,แม่น้ำยม,ภาคเหนือ,W
YOM008,บางระกำ,16.708176,100.1718272,บางระกำ,บางระกำ,พิษณุโลก,แม่น้ำยม,ภาคเหนือ,W
NPI001,ท่าศาลา,8.786932,99.9112832,สระแก้ว,ท่าศาลา,นครศรีธรรมราช,ภาคใต้ฝั่งตะวันออก,ภาคใต้,W
MUN005,ราษีไศล,15.3395504,104.152352,เมืองคง,ราษีไศล,ศรีสะเกษ,แม่น้ำมูล,ภาคตะวันออกเฉียงเหนือ,W
NPI002,นบพิตำ,8.7200192,99.79616,สระแก้ว,ท่าศาลา,นครศรีธรรมราช,ภาคใต้ฝั่งตะวันออก,ภาคใต้,W
PAT002,เมืองยะลา,6.675238,101.2863936,ตาเซะ,เมืองยะลา,ยะลา,แม่น้ำปัตตานี,ภาคใต้,W
NAN006,บางกระทุ่ม,16.5804544,100.2386304,โคกสลุด,บางกระทุ่ม,พิษณุโลก,แม่น้ำน่าน,ภาคเหนือ,W
SLA001,หาดใหญ่,6.9801272,100.463232,คอหงส์,หาดใหญ่,สงขลา,ทะเลสาบสงขลา,ภาคใต้,W
CHI010,มหาชนะชัย,15.5248336,104.2497472,ฟ้าหยาด,มหาชนะชัย,ยโสธร,แม่น้ำชี,ภาคตะวันออกเฉียงเหนือ,W
CHI011,เขื่องใน,15.3224688,104.5465216,เขื่องใน,เขื่องใน,อุบลราชธานี,แม่น้ำชี,ภาคตะวันออกเฉียงเหนือ,W
NAN007,ตะพานหิน,16.270416,100.4139904,งิ้วราย,ตะพานหิน,พิจิตร,แม่น้ำน่าน,ภาคเหนือ,W
SLA002,คลองหอยโข่ง,6.9312104,100.4398464,ทุ่งลาน,คลองหอยโข่ง,สงขลา,ทะเลสาบสงขลา,ภาคใต้,W
NAN004,พิชัย,17.2943984,100.0828224,ในเมือง,พิชัย,อุตรดิตถ์,แม่น้ำน่าน,ภาคเหนือ,W
TPI003,พุนพิน 3,8.9867944,99.2112832,ท่าสะท้อน,พุนพิน,สุราษฎร์ธานี,แม่น้ำตาปี,ภาคใต้,W
TPI005,เวียงสระ,8.5710592,99.2539456,ทุ่งหลวง,เวียงสระ,สุราษฎร์ธานี,แม่น้ำตาปี,ภาคใต้,W
MUN006,วารินชำราบ,15.2055568,104.8138816,คำน้ำแซบ,วารินชำราบ,อุบลราชธานี,แม่น้ำมูล,ภาคตะวันออกเฉียงเหนือ,W
TPI004,ท่าขนอม,9.0294048,98.9696384,ท่าขนอน,คีรีรัฐนิคม,สุราษฎร์ธานี,แม่น้ำตาปี,ภาคใต้,W
PIN002,เมืองตาก,16.786512,99.183968,ประดาง,วังเจ้า,ตาก,แม่น้ำปิง,ภาคเหนือ,W
SLA003,สะเดา,6.7966488,100.4423872,ท่าโพธิ์,สะเดา,สงขลา,ทะเลสาบสงขลา,ภาคใต้,W
YOM001,ปง,19.1481808,100.277504,ปง,ปง,พะเยา,แม่น้ำยม,ภาคเหนือ,W
SKM001,อากาศอำนวย,17.77756,104.0149632,โพนงาม,อากาศอำนวย,สกลนคร,แม่น้ำโขง,ภาคตะวันออกเฉียงเหนือ,W
PIN003,สะพานลานดอกไม้,16.6282096,99.432608,ลานดอกไม้,เมืองกำแพงเพชร,กำแพงเพชร,แม่น้ำปิง,ภาคเหนือ,W
TPI002,พุนพิน 2,9.0857768,99.1700416,หนองไทร,พุนพิน,สุราษฎร์ธานี,แม่น้ำตาปี,ภาคใต้,W
SVI002,สวี 2,10.2033072,99.0435904,นาสัก,สวี,ชุมพร,ภาคใต้ฝั่งตะวันออก,ภาคใต้,W
CHI005,ชนบท,16.0969248,102.5700032,ชนบท,ชนบท,ขอนแก่น,แม่น้ำชี,ภาคตะวันออกเฉียงเหนือ,W
YOM004,เด่นชัย,18.0208064,100.058784,เด่นชัย,เด่นชัย,แพร่,แม่น้ำยม,ภาคเหนือ,W
MDC006,คลองท่าดี,8.3997344,99.8331904,กำแพงเซา,เมืองนครศรีธรรมราช,นครศรีธรรมราช,ภาคใต้ฝั่งตะวันออก,ภาคใต้,W
SVI001,สวี 1,10.2312464,99.098464,นาโพธิ์,สวี,ชุมพร,ภาคใต้ฝั่งตะวันออก,ภาคใต้,W
YOM003,หนองม่วงไข่,18.2659008,100.1770624,น้ำรัด,หนองม่วงไข่,แพร่,แม่น้ำยม,ภาคเหนือ,W
YOM006,สวรรคโลก,17.201904,99.8638656,ท่าทอง,สวรรคโลก,สุโขทัย,แม่น้ำยม,ภาคเหนือ,W
WAN003,เถิน,17.75176,99.230624,แม่ถอด,เถิน,ลำปาง,แม่น้ำวัง,ภาคเหนือ,W
NAN001,ท่าวังผา,19.0961376,100.8026304,ท่าวังผา,ท่าวังผา,น่าน,แม่น้ำน่าน,ภาคเหนือ,W
NAN008,ชุมแสง,15.8692384,100.2648384,เกยไชย,ชุมแสง,นครสวรรค์,แม่น้ำน่าน,ภาคเหนือ,W
SKM003,บ้านม่วง,17.8215776,103.3870272,ห้วยหลัว,บ้านม่วง,สกลนคร,แม่น้ำโขง,ภาคตะวันออกเฉียงเหนือ,W
PIN001,บ้านตาก,17.0406128,99.0662656,ตากตก,บ้านตาก,ตาก,แม่น้ำปิง,ภาคเหนือ,W
MDC005,คลองนาท่อม,7.5588568,99.9875456,ร่มเมือง,เมืองพัทลุง,พัทลุง,ทะเลสาบสงขลา,ภาคใต้,W
WAN004,เกาะคา,18.1591488,99.384128,วังพร้าว,เกาะคา,ลำปาง,แม่น้ำวัง,ภาคเหนือ,W
MDC001,ตลาดเก่าตะกั่วป่า,8.8294104,98.3692864,โคกเคียน,ตะกั่วป่า,พังงา,ภาคใต้ฝั่งตะวันตก,ภาคใต้,W
YOM002,เชียงม่วน,18.9462176,100.258912,สระ,เชียงม่วน,พะเยา,แม่น้ำยม,ภาคเหนือ,W
CHI001,บ้านเขว้า,15.9331184,101.6995264,ภูแลนคา,บ้านเขว้า,ชัยภูมิ,แม่น้ำชี,ภาคตะวันออกเฉียงเหนือ,W
ATG141,เหนือปตร.โพธิ์พระยา,14.5324448,100.1223104,โพธิ์พระยา,เมืองสุพรรณบุรี,สุพรรณบุรี,แม่น้ำท่าจีน,ภาคกลาง,W
ATG132,ท้ายปตร.ชลมาร์คพิจารณ์,14.7706544,100.0882432,สามชุก,สามชุก,สุพรรณบุรี,แม่น้ำท่าจีน,ภาคกลาง,W
ATG181,เหนือปตร.ช่องแค,15.1462736,100.4129664,พรหมนิมิต,ตาคลี,นครสวรรค์,แม่น้ำเจ้าพระยา,ภาคเหนือ,W
ATG182,ท้ายปตร.ช่องแค,15.1454816,100.4131904,พรหมนิมิต,ตาคลี,นครสวรรค์,แม่น้ำเจ้าพระยา,ภาคเหนือ,W
ATG092,ท้ายปตร.พระอินทราชา,14.1437312,100.6207872,พยอม,วังน้อย,พระนครศรีอยุธยา,แม่น้ำเจ้าพระยา,ภาคกลาง,W
ATG121,เหนือปตร.ท่าโบสถ์,15.0542288,100.0115904,สามง่ามท่าโบสถ์,หันคา,ชัยนาท,แม่น้ำท่าจีน,ภาคกลาง,W
ATG072,ปตร.พระศรีศิลป์,14.3273104,100.8711296,หนองแค,หนองแค,สระบุรี,แม่น้ำเจ้าพระยา,ภาคกลาง,W
ATG091,เหนือปตร.พระอินทราชา,14.1440864,100.6214016,วังน้อย,วังน้อย,พระนครศรีอยุธยา,แม่น้ำเจ้าพระยา,ภาคกลาง,W
ATG101,ปตร.จุฬาลงกรณ์,13.9813744,100.6056896,ประชาธิปัตย์,ธัญบุรี,ปทุมธานี,แม่น้ำเจ้าพระยา,ภาคกลาง,W
ATG081,เหนือปตร.พระธรรมราชา,14.0777056,100.8920832,บึงน้ำรักษ์,ธัญบุรี,ปทุมธานี,แม่น้ำเจ้าพระยา,ภาคกลาง,W
ATG042,ท้ายปตร.มะขามเฒ่า-อู่ทอง,15.2223168,100.0623424,มะขามเฒ่า,วัดสิงห์,ชัยนาท,แม่น้ำท่าจีน,ภาคกลาง,W
ATG171,เหนือปตร.ผักไห่-เจ้าเจ็ด,14.4364368,100.3756224,บ้านใหญ่,ผักไห่,พระนครศรีอยุธยา,แม่น้ำเจ้าพระยา,ภาคกลาง,W
ATG131,เหนือปตร.ชลมาร์คพิจารณ์,14.7711808,100.0883712,สามชุก,สามชุก,สุพรรณบุรี,แม่น้ำท่าจีน,ภาคกลาง,W
ATG162,ท้ายปตร.ยางมณี,14.750368,100.4149696,พิกุลทอง,ท่าช้าง,สิงห์บุรี,แม่น้ำเจ้าพระยา,ภาคกลาง,W
ATG052,ท้ายปตร.พระนารายน์,14.5566432,100.7620224,ท่าหลวง,ท่าเรือ,พระนครศรีอยุธยา,แม่น้ำป่าสัก,ภาคกลาง,W
ATG051,เหนือปตร.พระนารายน์,14.558264,100.7620672,ท่าหลวง,ท่าเรือ,พระนครศรีอยุธยา,แม่น้ำป่าสัก,ภาคกลาง,W
ATG161,เหนือปตร.ยางมณี,14.7510208,100.4145984,พิกุลทอง,ท่าช้าง,สิงห์บุรี,แม่น้ำเจ้าพระยา,ภาคกลาง,W
ATG151,เหนือปตร.บางระจัน,14.9259632,100.275808,เชิงกลัด,บางระจัน,สิงห์บุรี,แม่น้ำเจ้าพระยา,ภาคกลาง,W
ATG122,ท้ายปตร.ท่าโบสถ์,15.0535104,100.011744,สามง่ามท่าโบสถ์,หันคา,ชัยนาท,แม่น้ำท่าจีน,ภาคกลาง,W
ATG021,เหนือ ปตร.มโนรมย์,15.3304752,100.10336,วัดโคก,มโนรมย์,ชัยนาท,แม่น้ำเจ้าพระยา,ภาคกลาง,W
ATG112,ท้ายปตร.มหาราช,15.161408,100.17264,บ้านกล้วย,เมืองชัยนาท,ชัยนาท,แม่น้ำเจ้าพระยา,ภาคกลาง,W
ATG152,ท้ายปตร.บางระจัน,14.9251696,100.2758784,เชิงกลัด,บางระจัน,สิงห์บุรี,แม่น้ำเจ้าพระยา,ภาคกลาง,W
ATG011,ปตร.พลเทพ,15.215888,100.0728384,หาดท่าเสา,เมืองชัยนาท,ชัยนาท,แม่น้ำเจ้าพระยา,ภาคกลาง,W
ATG111,เหนือปตร.มหาราช,15.1589104,100.17328,บ้านกล้วย,เมืองชัยนาท,ชัยนาท,แม่น้ำเจ้าพระยา,ภาคกลาง,W
ATG032,ท้ายปตร.บรมธาตุ,15.1578304,100.1528256,ชัยนาท,เมืองชัยนาท,ชัยนาท,แม่น้ำเจ้าพระยา,ภาคกลาง,W
ATG031,เหนือปตร.บรมธาตุ,15.1581552,100.1534784,ชัยนาท,เมืองชัยนาท,ชัยนาท,แม่น้ำเจ้าพระยา,ภาคกลาง,W
ATG082,ท้ายปตร.พระธรรมราชา,14.0763408,100.8939264,บึงน้ำรักษ์,ธัญบุรี,ปทุมธานี,แม่น้ำเจ้าพระยา,ภาคกลาง,W
ATG142,ท้ายปตร.โพธิ์พระยา,14.5318048,100.1224384,โพธิ์พระยา,เมืองสุพรรณบุรี,สุพรรณบุรี,แม่น้ำท่าจีน,ภาคกลาง,W
PIN006,เมืองกำแพงเพชร (P7A),16.4781504,99.5186304,นครชุม,เมืองกำแพงเพชร,กำแพงเพชร,แม่น้ำปิง,ภาคเหนือ,W
BKK012,คลองสำโรง บางเสาธง,13.5891648,100.8024896,บางเสาธง,บางเสาธง,สมุทรปราการ,แม่น้ำบางปะกง,ภาคกลาง,W
PAS002,เมืองเพชรบูรณ์,16.4479424,101.1701632,สะเดียง,เมืองเพชรบูรณ์,เพชรบูรณ์,แม่น้ำป่าสัก,ภาคเหนือ,W
NAN010,น้ำปาด,17.790888,100.748992,บ้านฝาย,น้ำปาด,อุตรดิตถ์,แม่น้ำน่าน,ภาคเหนือ,W
DIV003,คลองผันน้ำยม-น่าน3,17.2924928,100.077664,คอรุม,พิชัย,อุตรดิตถ์,แม่น้ำน่าน,ภาคเหนือ,W
YOM010,เมืองแพร่,18.1337264,100.1245696,ป่าแมต,เมืองแพร่,แพร่,แม่น้ำยม,ภาคเหนือ,W
CPY001,สะพานเดชาติวงศ์,15.6884816,100.1238336,ปากน้ำโพ,เมืองนครสวรรค์,นครสวรรค์,แม่น้ำเจ้าพระยา,ภาคเหนือ,W
KWN001,นครไทย,17.1069856,100.8458816,นครไทย,นครไทย,พิษณุโลก,แม่น้ำน่าน,ภาคเหนือ,W
NAN013,วังทอง,16.8222416,100.4315712,วังทอง,วังทอง,พิษณุโลก,แม่น้ำน่าน,ภาคเหนือ,W
PAS003,หนองไผ่,16.1149728,101.0970752,นาเฉลียง,หนองไผ่,เพชรบูรณ์,แม่น้ำป่าสัก,ภาคเหนือ,W
DIV005,ท่อทองแดง1,16.4971312,99.5196224,หนองปลิง,เมืองกำแพงเพชร,กำแพงเพชร,แม่น้ำปิง,ภาคเหนือ,W
YOM012,เมืองสุโขทัย,17.0213024,99.8196864,ธานี,เมืองสุโขทัย,สุโขทัย,แม่น้ำยม,ภาคเหนือ,W
NAN012,เมืองพิษณุโลก,16.8647568,100.244768,ปากโทก,เมืองพิษณุโลก,พิษณุโลก,แม่น้ำน่าน,ภาคเหนือ,W
PAS001,หล่มสัก,16.7814944,101.2467136,หล่มสัก,หล่มสัก,เพชรบูรณ์,แม่น้ำป่าสัก,ภาคเหนือ,W
PAI001,เมืองแม่ฮ่องสอน,19.3670224,97.9666816,ปางหมู,เมืองแม่ฮ่องสอน,แม่ฮ่องสอน,แม่น้ำสาละวิน,ภาคเหนือ,W
CHR001,เมืองเชียงราย,19.826312,99.7788864,ป่าอ้อดอนชัย,เมืองเชียงราย,เชียงราย,แม่น้ำกก,ภาคเหนือ,W
CHR003,แม่จัน,20.1575488,99.8596352,แม่จัน,แม่จัน,เชียงราย,แม่น้ำโขง,ภาคเหนือ,W
WAN005,เมืองลำปาง,18.3429888,99.5371136,ต้นธงชัย,เมืองลำปาง,ลำปาง,แม่น้ำวัง,ภาคเหนือ,W
KWN002,วัดโบสถ์,16.99888,100.3265152,วัดโบสถ์,วัดโบสถ์,พิษณุโลก,แม่น้ำน่าน,ภาคเหนือ,W
CHM005,แม่แตง,19.122096,98.9444672,สันมหาพน,แม่แตง,เชียงใหม่,แม่น้ำปิง,ภาคเหนือ,W
CHM006,จอมทอง,18.4232,98.6981504,ข่วงเปา,จอมทอง,เชียงใหม่,แม่น้ำปิง,ภาคเหนือ,W
CHM001,สันทราย,19.0098048,98.959808,แม่แฝก,สันทราย,เชียงใหม่,แม่น้ำปิง,ภาคเหนือ,W
CHM007,ฝาง,19.856256,99.195488,แม่สูน,ฝาง,เชียงใหม่,แม่น้ำกก,ภาคเหนือ,W
CHM003,แม่อาย,20.060992,99.3620416,ท่าตอน,แม่อาย,เชียงใหม่,แม่น้ำกก,ภาคเหนือ,W
PAS004,วิเชียรบุรี,15.6558832,101.100768,ท่าโรง,วิเชียรบุรี,เพชรบูรณ์,แม่น้ำป่าสัก,ภาคเหนือ,W
CHM002,ฮอด,18.1786064,98.6301824,หางดง,ฮอด,เชียงใหม่,แม่น้ำปิง,ภาคเหนือ,W
CHM004,เชียงดาว,19.3673104,98.9688832,เชียงดาว,เชียงดาว,เชียงใหม่,แม่น้ำปิง,ภาคเหนือ,W
NAN014,ตรอน,17.4183984,100.1307456,หาดสองแคว,ตรอน,อุตรดิตถ์,แม่น้ำน่าน,ภาคเหนือ,W
PAI002,ปาย,19.373864,98.439744,เวียงเหนือ,ปาย,แม่ฮ่องสอน,แม่น้ำสาละวิน,ภาคเหนือ,W
CHR004,แม่สรวย,19.652616,99.537888,แม่สรวย,แม่สรวย,เชียงราย,แม่น้ำกก,ภาคเหนือ,W
DIV002,คลองผันน้ำยม-น่าน2,16.953872,100.121248,ท่าช้าง,พรหมพิราม,พิษณุโลก,แม่น้ำยม,ภาคเหนือ,W
DIV004,คลองผันน้ำยม-น่าน4,16.6716608,100.2457856,งิ้วงาม,เมืองพิษณุโลก,พิษณุโลก,แม่น้ำยม,ภาคเหนือ,W
THA005,เมืองสุพรรณบุรี,14.4704896,100.114752,ท่าพี่เลี้ยง,เมืองสุพรรณบุรี,สุพรรณบุรี,แม่น้ำท่าจีน,ภาคกลาง,W
THA009,เมืองสมุทรสาคร,13.5859888,100.2304896,ท่าจีน,เมืองสมุทรสาคร,สมุทรสาคร,แม่น้ำท่าจีน,ภาคกลาง,W
KRN001,เมืองกาญจนบุรี,14.0604544,99.4832384,แก่งเสี้ยน,เมืองกาญจนบุรี,กาญจนบุรี,แม่น้ำแม่กลอง,ภาคกลาง,W
THA011,บางปลา,13.9704048,100.157472,บางปลา,บางเลน,นครปฐม,แม่น้ำท่าจีน,ภาคกลาง,W
BKK018,คลองพระพิมล (ไทรน้อย),13.9739552,100.319008,ไทรน้อย,ไทรน้อย,นนทบุรี,แม่น้ำเจ้าพระยา,ภาคกลาง,W
PRN001,ปราณบุรี,12.3899128,99.9111872,วังก์พง,ปราณบุรี,ประจวบคีรีขันธ์,ชายฝั่งทะเลประจวบคีรีขันธ์,ภาคกลาง,W
PAS009,นครหลวง,14.4027088,100.5864064,บ่อโพง,นครหลวง,พระนครศรีอยุธยา,แม่น้ำป่าสัก,ภาคกลาง,W
PAS008,ท่าเรือ,14.5601728,100.7198464,ท่าเรือ,ท่าเรือ,พระนครศรีอยุธยา,แม่น้ำป่าสัก,ภาคกลาง,W
GLF003,บางตะบูน,13.2655632,99.9418624,บางตะบูนออก,บ้านแหลม,เพชรบุรี,แม่น้ำเพชรบุรี,ภาคกลาง,W
LBI001,บางปะหัน,14.4272896,100.5560896,โพธิ์สามต้น,บางปะหัน,พระนครศรีอยุธยา,แม่น้ำเจ้าพระยา,ภาคกลาง,W
CPY016,คลองพระยาบรรลือ,14.1648096,100.3072256,สามเมือง,ลาดบัวหลวง,พระนครศรีอยุธยา,แม่น้ำเจ้าพระยา,ภาคกลาง,W
CPY017,เสนา,14.3197424,100.3795456,เจ้าเสด็จ,เสนา,พระนครศรีอยุธยา,แม่น้ำเจ้าพระยา,ภาคกลาง,W
CPY005,สรรพยา,15.1090144,100.2678464,โพนางดำออก,สรรพยา,ชัยนาท,แม่น้ำเจ้าพระยา,ภาคกลาง,W
PRC003,นาดี,14.1335824,101.7276672,สะพานหิน,นาดี,ปราจีนบุรี,แม่น้ำปราจีนบุรี,ภาคกลาง,W
THA003,ด่านช้าง,14.8350352,99.665408,ด่านช้าง,ด่านช้าง,สุพรรณบุรี,แม่น้ำท่าจีน,ภาคกลาง,W
THA010,สองพี่น้อง,14.2161184,100.0501632,สองพี่น้อง,สองพี่น้อง,สุพรรณบุรี,แม่น้ำท่าจีน,ภาคกลาง,W
THA004,สามชุก,14.7513792,100.0958656,สามชุก,สามชุก,สุพรรณบุรี,แม่น้ำท่าจีน,ภาคกลาง,W
MKG006,พระรามสอง,13.3836384,99.9835904,แม่กลอง,เมืองสมุทรสงคราม,สมุทรสงคราม,แม่น้ำแม่กลอง,ภาคกลาง,W
RAJ003,สวนผึ้ง,13.5601056,99.362272,สวนผึ้ง,สวนผึ้ง,ราชบุรี,แม่น้ำแม่กลอง,ภาคกลาง,W
THA007,บางเลน,14.0163504,100.1797824,บางเลน,บางเลน,นครปฐม,แม่น้ำท่าจีน,ภาคกลาง,W
THA008,สามพราน,13.7921232,100.1980864,หอมเกร็ด,สามพราน,นครปฐม,แม่น้ำท่าจีน,ภาคกลาง,W
BKK017,คลองจระเข้ใหญ่ บางเสาธง (วัดศรีวารีน้อย),13.6694976,100.8005952,ศีรษะจรเข้ใหญ่,บางเสาธง,สมุทรปราการ,แม่น้ำบางปะกง,ภาคกลาง,W
BKK002,คลองเปรมประชากร หลักหก,13.9656848,100.602592,หลักหก,เมืองปทุมธานี,ปทุมธานี,แม่น้ำเจ้าพระยา,ภาคกลาง,W
BKK013,คลองระพีพัฒน์แยกใต้ หนองเสือ,14.2205504,100.89168,นพรัตน์,หนองเสือ,ปทุมธานี,แม่น้ำเจ้าพระยา,ภาคกลาง,W
CPY011,พระนครศรีอยุธยา,14.3691424,100.52864,ภูเขาทอง,พระนครศรีอยุธยา,พระนครศรีอยุธยา,แม่น้ำเจ้าพระยา,ภาคกลาง,W
CPY009,คลองบางหลวง,14.4158144,100.4407424,บางหลวงโดด,บางบาล,พระนครศรีอยุธยา,แม่น้ำเจ้าพระยา,ภาคกลาง,W
LBI002,เมืองลพบุรี,14.7604784,100.5996096,โพธิ์เก้าต้น,เมืองลพบุรี,ลพบุรี,แม่น้ำเจ้าพระยา,ภาคกลาง,W
NAN011,เมืองอุตรดิตถ์,17.6101104,100.0994112,ป่าเซ่า,เมืองอุตรดิตถ์,อุตรดิตถ์,แม่น้ำน่าน,ภาคเหนือ,W
CPY003,ปตร.มโนรมย์,15.3276944,100.1091264,วัดโคก,มโนรมย์,ชัยนาท,แม่น้ำเจ้าพระยา,ภาคกลาง,W
THA001,สะพานคง-ศุข ศรีสวัสดิ์,15.2250384,100.0782784,หาดท่าเสา,เมืองชัยนาท,ชัยนาท,แม่น้ำเจ้าพระยา,ภาคกลาง,W
CPY004,สะพานธรรมจักร(วัดธรรมามูล),15.2503264,100.0834752,ธรรมามูล,เมืองชัยนาท,ชัยนาท,แม่น้ำเจ้าพระยา,ภาคกลาง,W
BKK001,คลองลาดพร้าว ท้ายปตร.คลอง2,13.92248,100.634368,สายไหม,สายไหม,กรุงเทพมหานคร,แม่น้ำเจ้าพระยา,กรุงเทพมหานคร,W
PRC001,กบินทร์บุรี,13.9866016,101.70544,กบินทร์,กบินทร์บุรี,ปราจีนบุรี,แม่น้ำปราจีนบุรี,ภาคกลาง,W
SKE002,เมืองสระแก้ว,13.8096112,102.0543424,สระขวัญ,เมืองสระแก้ว,สระแก้ว,แม่น้ำปราจีนบุรี,ภาคกลาง,W
PCH002,แก่งกระจาน,12.9222208,99.8175424,วังจันทร์,แก่งกระจาน,เพชรบุรี,แม่น้ำเพชรบุรี,ภาคกลาง,W
RAJ001,โพธาราม,13.6331744,99.8163712,เจ็ดเสมียน,โพธาราม,ราชบุรี,แม่น้ำแม่กลอง,ภาคกลาง,W
RAJ002,บ้านโป่ง,13.818656,99.8650304,เบิกไพร,บ้านโป่ง,ราชบุรี,แม่น้ำแม่กลอง,ภาคกลาง,W
KRN002,ไทรโยค,14.1126304,99.1463616,ลุ่มสุ่ม,ไทรโยค,กาญจนบุรี,แม่น้ำแม่กลอง,ภาคกลาง,W
GLF001,ป้อมพระจุลจอมเกล้า,13.57376,100.5739712,แหลมฟ้าผ่า,พระสมุทรเจดีย์,สมุทรปราการ,แม่น้ำเจ้าพระยา,ภาคกลาง,W
BKK007,คลองอ้อมนนท์ บางใหญ่ (ถนนบางกรวย-ไทรน้อย),13.8708928,100.4362816,บางม่วง,บางใหญ่,นนทบุรี,แม่น้ำเจ้าพระยา,ภาคกลาง,W
CPY014,สะพานนวลฉวี,13.94752,100.53504,บ้านใหม่,ปากเกร็ด,นนทบุรี,แม่น้ำเจ้าพระยา,ภาคกลาง,W
BKK019,คลองนราภิรมย์ (บางเลน),13.8820752,100.2908736,นราภิรมย์,บางเลน,นครปฐม,แม่น้ำเจ้าพระยา,ภาคกลาง,W
TRD001,เมืองตราด,12.3252008,102.50048,ห้วยแร้ง,เมืองตราด,ตราด,ชายฝั่งทะเลตะวันออก,ภาคกลาง,W
THA006,บางตาเถร,14.1565984,100.1274752,บางตาเถร,สองพี่น้อง,สุพรรณบุรี,แม่น้ำท่าจีน,ภาคกลาง,W
BKK006,คลองมหาชัย วัดพันท้ายนรสิงห์,13.5818384,100.3658496,พันท้ายนรสิงห์,เมืองสมุทรสาคร,สมุทรสาคร,แม่น้ำท่าจีน,ภาคกลาง,W
MKG005,บ้านแพ้ว,13.5756352,100.07888,หนองบัว,บ้านแพ้ว,สมุทรสาคร,แม่น้ำแม่กลอง,ภาคกลาง,W
PCH001,เมืองเพชรบุรี,13.0855704,99.9439424,ต้นมะม่วง,เมืองเพชรบุรี,เพชรบุรี,แม่น้ำเพชรบุรี,ภาคกลาง,W
CPY013,บางไทร,14.1182864,100.5353152,โพแตง,บางไทร,พระนครศรีอยุธยา,แม่น้ำเจ้าพระยา,ภาคกลาง,W
CPY010,คลองบางบาล,14.4229984,100.4818432,ไทรน้อย,บางบาล,พระนครศรีอยุธยา,แม่น้ำเจ้าพระยา,ภาคกลาง,W
CPY008,เมืองอ่างทอง,14.57652,100.4484672,บางแก้ว,เมืองอ่างทอง,อ่างทอง,แม่น้ำเจ้าพระยา,ภาคกลาง,W
CPY007,พรหมบุรี,14.7909008,100.4518272,พรหมบุรี,พรหมบุรี,สิงห์บุรี,แม่น้ำเจ้าพระยา,ภาคกลาง,W
CPY006,อินทร์บุรี,15.0060096,100.3309312,อินทร์บุรี,อินทร์บุรี,สิงห์บุรี,แม่น้ำเจ้าพระยา,ภาคกลาง,W
THA002,สรรคบุรี (แม่น้ำน้อย),15.0640832,100.16288,เที่ยงแท้,สรรคบุรี,ชัยนาท,แม่น้ำเจ้าพระยา,ภาคกลาง,W
PAS010,สะพานเตาปูน-ตาลเดี่ยว,14.5801648,100.9661824,ตาลเดี่ยว,แก่งคอย,สระบุรี,,ภาคกลาง,W
RAY001,เมืองแกลง,12.8030008,101.6501824,บ้านนา,แกลง,ระยอง,ชายฝั่งทะเลตะวันออก,ภาคกลาง,W
BKK016,ปากคลองพระองค์เจ้าฯ (บางน้ำเปรี้ยว),13.838216,100.9666112,บางน้ำเปรี้ยว,บางน้ำเปรี้ยว,ฉะเชิงเทรา,แม่น้ำบางปะกง,ภาคกลาง,W
BPK001,บางปะกง,13.5489984,101.0011584,ท่าสะอ้าน,บางปะกง,ฉะเชิงเทรา,แม่น้ำบางปะกง,ภาคกลาง,W
BPK004,พนมสารคาม,13.7266496,101.35296,เกาะขนุน,พนมสารคาม,ฉะเชิงเทรา,แม่น้ำบางปะกง,ภาคกลาง,W
NYK000,องครักษ์,14.1136736,101.0195264,องครักษ์,องครักษ์,นครนายก,แม่น้ำบางปะกง,ภาคกลาง,W
PRC002,เมืองปราจีนบุรี,14.0535888,101.3868416,หน้าเมือง,เมืองปราจีนบุรี,ปราจีนบุรี,แม่น้ำปราจีนบุรี,ภาคกลาง,W
MUN017,เมืองอุบลราชธานี,15.3276544,104.6818752,หัวดอน,เขื่องใน,อุบลราชธานี,แม่น้ำมูล,ภาคตะวันออกเฉียงเหนือ,W
MUN012,ประโคนชัย,14.6330176,103.230464,ไพศาล,ประโคนชัย,บุรีรัมย์,แม่น้ำมูล,ภาคตะวันออกเฉียงเหนือ,W
KON005,บ้านดุง,17.6397584,103.0988096,นาคำ,บ้านดุง,อุดรธานี,แม่น้ำโขง,ภาคตะวันออกเฉียงเหนือ,W
KON001,วังสะพุง,17.3123136,101.7725952,วังสะพุง,วังสะพุง,เลย,แม่น้ำโขง,ภาคตะวันออกเฉียงเหนือ,W
MUN014,สตึก,15.299904,103.2923456,นิคม,สตึก,บุรีรัมย์,แม่น้ำมูล,ภาคตะวันออกเฉียงเหนือ,W
CHI015,สะพานฉลองขอนแก่น 200 ปี,16.5289904,102.9060096,หนองตูม,เมืองขอนแก่น,ขอนแก่น,แม่น้ำชี,ภาคตะวันออกเฉียงเหนือ,W
KON004,เมืองอุดรธานี,17.4823616,102.7971136,หมูม่น,เมืองอุดรธานี,อุดรธานี,แม่น้ำโขง,ภาคตะวันออกเฉียงเหนือ,W
SKM005,สว่างแดนดิน,17.5947696,103.3844864,โพนสูง,สว่างแดนดิน,สกลนคร,แม่น้ำโขง,ภาคตะวันออกเฉียงเหนือ,W
MUN015,ท่าตูม,15.3296784,103.6826112,ทุ่งกุลา,ท่าตูม,สุรินทร์,แม่น้ำมูล,ภาคตะวันออกเฉียงเหนือ,W
KON002,เมืองเลย,17.5093296,101.7366336,ชัยพฤกษ์,เมืองเลย,เลย,แม่น้ำโขง,ภาคตะวันออกเฉียงเหนือ,W
SKM004,ศรีสงคราม,17.6748688,104.2858112,ศรีสงคราม,ศรีสงคราม,นครพนม,แม่น้ำโขง,ภาคตะวันออกเฉียงเหนือ,W
CHI013,ยางตลาด,16.4110864,103.4671424,ดอนสมบูรณ์,ยางตลาด,กาฬสินธุ์,แม่น้ำชี,ภาคตะวันออกเฉียงเหนือ,W
MUN011,พิบูลมังสาหาร,15.2496848,105.239264,โพธิ์ศรี,พิบูลมังสาหาร,อุบลราชธานี,แม่น้ำมูล,ภาคตะวันออกเฉียงเหนือ,W
MUN009,เมืองสุรินทร์,14.8755296,103.3787136,ตระแสง,เมืองสุรินทร์,สุรินทร์,แม่น้ำมูล,ภาคตะวันออกเฉียงเหนือ,W
KON003,สุวรรณคูหา,17.5756624,102.27328,นาสี,สุวรรณคูหา,หนองบัวลำภู,แม่น้ำโขง,ภาคตะวันออกเฉียงเหนือ,W
CHI012,เมืองมหาสารคาม,16.2322512,103.2710784,เกิ้ง,เมืองมหาสารคาม,มหาสารคาม,แม่น้ำชี,ภาคตะวันออกเฉียงเหนือ,W
TPI007,วิภาวดี,9.206448,98.952512,ตะกุกเหนือ,วิภาวดี,สุราษฎร์ธานี,แม่น้ำตาปี,ภาคใต้,W
STU001,เมืองสตูล,6.7266664,100.062592,ฉลุง,เมืองสตูล,สตูล,ภาคใต้ฝั่งตะวันตก,ภาคใต้,W
TNG002,เมืองตรัง,7.5559,99.5782464,บางรัก,เมืองตรัง,ตรัง,ภาคใต้ฝั่งตะวันตก,ภาคใต้,W
CMP001,เมืองชุมพร,10.5744512,99.1457472,หาดพันไกร,เมืองชุมพร,ชุมพร,ภาคใต้ฝั่งตะวันออก,ภาคใต้,W
SLA005,ปากรอ,7.2614384,100.4243456,ปากรอ,สิงหนคร,สงขลา,ทะเลสาบสงขลา,ภาคใต้,W
NKO001,ทุ่งสง,8.1749504,99.6789056,ปากแพรก,ทุ่งสง,นครศรีธรรมราช,ภาคใต้ฝั่งตะวันตก,ภาคใต้,W
CPY015,สะพานกรุงเทพ,13.7003664,100.4928064,ดาวคะนอง,ธนบุรี,กรุงเทพมหานคร,แม่น้ำเจ้าพระยา,ภาคกลาง,W
SAY002,ศรีสาคร,6.2272116,101.4969984,ศรีสาคร,ศรีสาคร,นราธิวาส,ภาคใต้ฝั่งตะวันออก,ภาคใต้,W
RNG001,เมืองระนอง,9.9616128,98.6445952,เขานิเวศน์,เมืองระนอง,ระนอง,ภาคใต้ฝั่งตะวันตก,ภาคใต้,W
CMP002,หลังสวน,9.9534248,99.0644096,ขันเงิน,หลังสวน,ชุมพร,ภาคใต้ฝั่งตะวันออก,ภาคใต้,W
NKO002,เชียรใหญ่,8.0895048,100.1278912,การะเกด,เชียรใหญ่,นครศรีธรรมราช,ภาคใต้ฝั่งตะวันออก,ภาคใต้,W
TKP002,เมืองพังงา,8.4773352,98.5282816,ถ้ำน้ำผุด,เมืองพังงา,พังงา,ภาคใต้ฝั่งตะวันตก,ภาคใต้,W
TNG001,ท่าสะบ้า,7.7293792,99.5514816,ท่าสะบ้า,วังวิเศษ,ตรัง,ภาคใต้ฝั่งตะวันตก,ภาคใต้,W
SAY001,สุคิริน,5.9392872,101.7747136,สุคิริน,สุคิริน,นราธิวาส,ภาคใต้ฝั่งตะวันออก,ภาคใต้,W
BKK008,คลองแสนแสบ บางกะปิ,13.7613056,100.6160256,หัวหมาก,บางกะปิ,กรุงเทพมหานคร,แม่น้ำเจ้าพระยา,กรุงเทพมหานคร,W
BKK020,คลองลาดพร้าว ปากคลอง2สายใต้,13.9318256,100.6395264,ลาดพร้าว,ลาดพร้าว,กรุงเทพมหานคร,แม่น้ำเจ้าพระยา,กรุงเทพมหานคร,W
BKK005,คลองภาษีเจริญ เพชรเกษม69,13.6916448,100.381312,หลักสอง,บางแค,กรุงเทพมหานคร,แม่น้ำเจ้าพระยา,กรุงเทพมหานคร,W
BKK015,คลองหกวา ลำลูกกา คลอง8,13.9415728,100.7749696,ลำลูกกา,ลำลูกกา,ปทุมธานี,แม่น้ำบางปะกง,ภาคกลาง,W
MUN010,เมืองศรีสะเกษ,15.1181344,104.318592,เมืองเหนือ,เมืองศรีสะเกษ,ศรีสะเกษ,แม่น้ำมูล,ภาคตะวันออกเฉียงเหนือ,W
GLF002,ปากแม่น้ำท่าจีน,13.5178064,100.2749952,บางหญ้าแพรก,เมืองสมุทรสาคร,สมุทรสาคร,แม่น้ำท่าจีน,ภาคกลาง,W
CHR002,เทิง,19.6882448,100.1875264,เวียง,เทิง,เชียงราย,แม่น้ำโขง,ภาคเหนือ,W
CHR005,เชียงแสน,20.2197104,100.1211456,โยนก,เชียงแสน,เชียงราย,แม่น้ำกก,ภาคเหนือ,W
DIV001,คลองผันน้ำยม-น่าน1,17.3662048,99.84368,ในเมือง,สวรรคโลก,สุโขทัย,แม่น้ำยม,ภาคเหนือ,W
PYO001,ท้ายกว๊านพะเยา,19.159832,99.9141312,เวียง,เมืองพะเยา,พะเยา,แม่น้ำโขง,ภาคเหนือ,W
YOM011,งาว,18.7608016,99.9726656,หลวงใต้,งาว,ลำปาง,แม่น้ำยม,ภาคเหนือ,W
SKG002,เมืองอุทัยธานี,15.3708384,100.044192,อุทัยใหม่,เมืองอุทัยธานี,อุทัยธานี,แม่น้ำสะแกกรัง,ภาคเหนือ,W
NAN009,เวียงสา,18.5499488,100.7615552,ส้าน,เวียงสา,น่าน,แม่น้ำน่าน,ภาคเหนือ,W
BKK003,คลองมหาสวัสดิ บางกรวย-สวนผัก,13.7996048,100.4386624,ตลิ่งชัน,ตลิ่งชัน,กรุงเทพมหานคร,แม่น้ำเจ้าพระยา,กรุงเทพมหานคร,W
BKK004,คลองทวีวัฒนา ท้ายปตร.ทวีวัฒนา,13.7956224,100.3319424,ศาลาธรรมสพน์,ทวีวัฒนา,กรุงเทพมหานคร,แม่น้ำเจ้าพระยา,กรุงเทพมหานคร,W
CPY012,บางปะอิน,14.3045184,100.566432,ขนอนหลวง,บางปะอิน,พระนครศรีอยุธยา,แม่น้ำเจ้าพระยา,ภาคกลาง,W
SLA007,บางกล่ำ,7.0794184,100.4278784,ท่าช้าง,บางกล่ำ,สงขลา,ทะเลสาบสงขลา,ภาคใต้,W
CHN001,เมืองจันทบุรี,12.6135792,102.1140864,จันทนิมิต,เมืองจันทบุรี,จันทบุรี,ชายฝั่งทะเลตะวันออก,ภาคกลาง,W
CPY002,พยุหะคีรี,15.4265632,100.134688,ท่าน้ำอ้อย,พยุหะคีรี,นครสวรรค์,แม่น้ำเจ้าพระยา,ภาคเหนือ,W
BKK021,คลองลาดพร้าว วัดบางบัว,13.8540736,100.587488,อนุสาวรีย์,บางเขน,กรุงเทพมหานคร,แม่น้ำเจ้าพระยา,กรุงเทพมหานคร,W
BKK009,คลองลำปลาทิว ลาดกระบัง,13.7406944,100.794688,ลาดกระบัง,ลาดกระบัง,กรุงเทพมหานคร,แม่น้ำบางปะกง,กรุงเทพมหานคร,W
BPK003,บางน้ำเปรี้ยว,13.8703536,101.1457472,บางขนาก,บางน้ำเปรี้ยว,ฉะเชิงเทรา,แม่น้ำบางปะกง,ภาคกลาง,W
SKE001,คลองพระปรง,13.9374,101.9220032,บ้านแก้ง,เมืองสระแก้ว,สระแก้ว,แม่น้ำปราจีนบุรี,ภาคกลาง,W
SKE003,คลองพรหมโหด,13.7058496,102.4816832,บ้านใหม่หนองไทร,อรัญประเทศ,สระแก้ว,โตนเลสาป,ภาคกลาง,W
WEI112,ท้ายฝายราษีไศล,15.3440992,104.09936,บัวหุ่ง,ราษีไศล,ศรีสะเกษ,แม่น้ำมูล,ภาคตะวันออกเฉียงเหนือ,W
WEI081,เหนือฝายยโสธร,15.7325696,104.1317952,แสนสุข,พนมไพร,ร้อยเอ็ด,แม่น้ำชี,ภาคตะวันออกเฉียงเหนือ,W
WEI072,ท้ายฝายร้อยเอ็ด,16.1722288,103.7897536,พระธาตุ,เชียงขวัญ,ร้อยเอ็ด,แม่น้ำชี,ภาคตะวันออกเฉียงเหนือ,W
WEI071,เหนือฝายร้อยเอ็ด,16.1725824,103.7889856,พระธาตุ,เชียงขวัญ,ร้อยเอ็ด,แม่น้ำชี,ภาคตะวันออกเฉียงเหนือ,W
WEI131,เหนือฝายยางบ้านเขว้า,15.4119744,103.1022912,ปะเคียบ,คูเมือง,บุรีรัมย์,แม่น้ำมูล,ภาคตะวันออกเฉียงเหนือ,W
WEI111,เหนือฝายราษีไศล,15.3443936,104.0988096,บัวหุ่ง,ราษีไศล,ศรีสะเกษ,แม่น้ำมูล,ภาคตะวันออกเฉียงเหนือ,W
WEI031,เหนือฝายชนบท,16.0739344,102.4941312,โนนพะยอม,ชนบท,ขอนแก่น,แม่น้ำชี,ภาคตะวันออกเฉียงเหนือ,W
WEI091,เหนือฝายธาตุน้อย,15.3105248,104.4560384,สหธาตุ,เขื่องใน,อุบลราชธานี,แม่น้ำชี,ภาคตะวันออกเฉียงเหนือ,W
WEI092,ท้ายฝายธาตุน้อย,15.3108176,104.456992,สหธาตุ,เขื่องใน,อุบลราชธานี,แม่น้ำชี,ภาคตะวันออกเฉียงเหนือ,W
WEI011,เหนือฝายยางกะฮาด,15.6391504,102.0393472,กะฮาด,เนินสง่า,ชัยภูมิ,แม่น้ำชี,ภาคตะวันออกเฉียงเหนือ,W
WEI012,ท้ายฝายยางกะฮาด,15.638408,102.040032,กะฮาด,เนินสง่า,ชัยภูมิ,แม่น้ำชี,ภาคตะวันออกเฉียงเหนือ,W
WEI041,เหนือฝายหนองหวาย,16.7245856,102.8034624,น้ำพอง,น้ำพอง,ขอนแก่น,แม่น้ำชี,ภาคตะวันออกเฉียงเหนือ,W
WEI032,ท้ายฝายชนบท,16.0743952,102.4947584,โนนพะยอม,ชนบท,ขอนแก่น,แม่น้ำชี,ภาคตะวันออกเฉียงเหนือ,W
WEI142,ท้ายฝายชุมพวง,15.3865376,102.7191872,ชุมพวง,ชุมพวง,นครราชสีมา,แม่น้ำมูล,ภาคตะวันออกเฉียงเหนือ,W
WEI122,ท้ายฝายยางบ้านตะลุง,15.2928768,103.542368,หนองเรือ,ชุมพลบุรี,สุรินทร์,แม่น้ำมูล,ภาคตะวันออกเฉียงเหนือ,W
WEI121,เหนือฝายยางบ้านตะลุง,15.2934304,103.5404864,หนองเรือ,ชุมพลบุรี,สุรินทร์,แม่น้ำมูล,ภาคตะวันออกเฉียงเหนือ,W
WEI132,ท้ายฝายยางบ้านเขว้า,15.4110096,103.1037184,ปะเคียบ,คูเมือง,บุรีรัมย์,แม่น้ำมูล,ภาคตะวันออกเฉียงเหนือ,W
WEI141,เหนือฝายชุมพวง,15.3865808,102.7188032,ชุมพวง,ชุมพวง,นครราชสีมา,แม่น้ำมูล,ภาคตะวันออกเฉียงเหนือ,W
WEI062,ท้ายฝายวังยาง,16.2001728,103.4735296,ลำชี,ฆ้องชัย,กาฬสินธุ์,แม่น้ำชี,ภาคตะวันออกเฉียงเหนือ,W
WEI021,เหนือฝายยางแก้งสนามนาง,15.790624,102.3044416,โนนสำราญ,แก้งสนามนาง,นครราชสีมา,แม่น้ำชี,ภาคตะวันออกเฉียงเหนือ,W
WEI022,ท้ายฝายยางแก้งสนามนาง,15.791176,102.305184,โนนสำราญ,แก้งสนามนาง,นครราชสีมา,แม่น้ำชี,ภาคตะวันออกเฉียงเหนือ,W
WEI151,เหนือฝายพิมาย,15.2277984,102.501568,ในเมือง,พิมาย,นครราชสีมา,แม่น้ำมูล,ภาคตะวันออกเฉียงเหนือ,W
WEI051,เหนือฝายมหาสารคาม,16.3691248,102.9476032,หนองบัว,โกสุมพิสัย,มหาสารคาม,แม่น้ำชี,ภาคตะวันออกเฉียงเหนือ,W
WEI052,ท้ายฝายมหาสารคาม,16.365976,102.9497536,หนองบัว,โกสุมพิสัย,มหาสารคาม,แม่น้ำชี,ภาคตะวันออกเฉียงเหนือ,W
WEI101,เหนือฝายหัวนา,15.134976,104.70208,หนองแก้ว,กันทรารมย์,ศรีสะเกษ,แม่น้ำมูล,ภาคตะวันออกเฉียงเหนือ,W
WEI061,เหนือฝายวังยาง,16.199424,103.47296,ลำชี,ฆ้องชัย,กาฬสินธุ์,แม่น้ำชี,ภาคตะวันออกเฉียงเหนือ,W
WEI102,ท้ายฝายหัวนา,15.1344256,104.70288,หนองแก้ว,กันทรารมย์,ศรีสะเกษ,แม่น้ำมูล,ภาคตะวันออกเฉียงเหนือ,W
SKG003,สะพานต้นน้ำ (เกาะแก้ว-ตลิ่งสูง),15.9145904,99.4193984,ปางมะค่า,ขาณุวรลักษบุรี,กำแพงเพชร,แม่น้ำสะแกกรัง,ภาคเหนือ,W
SKG007,คลองกลาง,15.7832336,99.653248,ศาลเจ้าไก่ต่อ,ลาดยาว,นครสวรรค์,แม่น้ำสะแกกรัง,ภาคเหนือ,W
SKG008,หน่วยพิทักษ์ อช.แม่วงก์ที่ 4 (แม่เรวา),15.9124896,99.3274432,แม่เล่ย์,แม่วงก์,นครสวรรค์,แม่น้ำสะแกกรัง,ภาคเหนือ,R
SKG005,สะพานแม่วงก์,15.90176,99.470464,ปางมะค่า,ขาณุวรลักษบุรี,กำแพงเพชร,แม่น้ำสะแกกรัง,ภาคเหนือ,W
SKG004,สะพานแม่เล่ย์,15.8417728,99.4180736,แม่เล่ย์,แม่วงก์,นครสวรรค์,แม่น้ำสะแกกรัง,ภาคเหนือ,W
SWR019,รร.บ้านช้างเชื่อ,8.7443984,98.489504,เหล,กะปง,พังงา,ภาคใต้ฝั่งตะวันตก,ภาคใต้,R
SWR022,รพ.สต.เวียงสระ,8.6559504,99.299328,เวียงสระ,เวียงสระ,สุราษฎร์ธานี,แม่น้ำตาปี,ภาคใต้,R
SWR007,อบต.พุสวรรค์,13.0064464,99.7396864,พุสวรรค์,แก่งกระจาน,เพชรบุรี,แม่น้ำเพชรบุรี,ภาคกลาง,R
SWR018,รร.บ้านท่าหัน,8.8291352,98.492,รมณีย์,กะปง,พังงา,ภาคใต้ฝั่งตะวันตก,ภาคใต้,R
BSP002,คลองขนาน,11.240444,99.4352384,ร่อนทอง,บางสะพาน,ประจวบคีรีขันธ์,ชายฝั่งทะเลประจวบคีรีขันธ์,ภาคกลาง,W
SWR008,รร.ตชด. นเรศวรบ้านห้วยโสก,12.6601248,99.538688,ป่าเด็ง,แก่งกระจาน,เพชรบุรี,ชายฝั่งทะเลประจวบคีรีขันธ์,ภาคกลาง,R
SWR004,รพสต.บ้านทุ่งเสือโทน,14.9588,98.9089,ชะแล,ทองผาภูมิ,กาญจนบุรี,แม่น้ำท่าจีน,ภาคกลาง,R
SWR027,อบต.อ่าวตง,7.8557472,99.3844096,อ่าวตง,วังวิเศษ,ตรัง,ภาคใต้ฝั่งตะวันตก,ภาคใต้,R
SWR023,ทต.ปลายพระยา,8.53284,98.8640704,ปลายพระยา,ปลายพระยา,กระบี่,แม่น้ำตาปี,ภาคใต้,R
SWR013,รร.บ้านดงไม้งาม,11.3158888,99.4663936,ชัยเกษม,บางสะพาน,ประจวบคีรีขันธ์,ชายฝั่งทะเลประจวบคีรีขันธ์,ภาคกลาง,R
SWR032,รพสต.บ้านลำกะ,7.583788,99.9716352,ชุมพล,ศรีนครินทร์,พัทลุง,ทะเลสาบสงขลา,ภาคใต้,R
KRN004,ลิ่นถิ่น,14.5355664,98.7876864,ไทรโยค,ไทรโยค,กาญจนบุรี,แม่น้ำแม่กลอง,ภาคกลาง,W
SWR016,ศาลากลางหมู่บ้านในล๊อค,11.181048,99.3554432,ทองมงคล,บางสะพาน,ประจวบคีรีขันธ์,ชายฝั่งทะเลประจวบคีรีขันธ์,ภาคกลาง,R
SWR003,อบต.วังยาว,14.8901616,99.3775296,วังยาว,ด่านช้าง,สุพรรณบุรี,แม่น้ำแม่กลอง,ภาคกลาง,R
SWR020,ศูนย์พัฒนาเด็กเล็ก อบต.ท่านา,8.6784608,98.4166656,ท่านา,กะปง,พังงา,ภาคใต้ฝั่งตะวันตก,ภาคใต้,R
SWR014,น้ำตกไทรคู่,11.2480864,99.3355456,ทองมงคล,บางสะพาน,ประจวบคีรีขันธ์,ชายฝั่งทะเลประจวบคีรีขันธ์,ภาคกลาง,R
SWR030,รร.บ้านลำปลอกเหนือ,7.3550992,99.8145472,ในควน,ย่านตาขาว,ตรัง,ภาคใต้ฝั่งตะวันตก,ภาคใต้,R
TNG005,วังวิเศษ,7.6689224,99.4594112,เขาวิเศษ,วังวิเศษ,ตรัง,ภาคใต้ฝั่งตะวันตก,ภาคใต้,W
SWR028,รร.บ้านหนองคล้า,7.6185304,99.449088,เขาวิเศษ,วังวิเศษ,ตรัง,ภาคใต้ฝั่งตะวันตก,ภาคใต้,R
SWR012,ประปาหมู่บ้านคลองเพลิน,11.3200744,99.3944384,ร่อนทอง,บางสะพาน,ประจวบคีรีขันธ์,ชายฝั่งทะเลประจวบคีรีขันธ์,ภาคกลาง,R
SWR010,ที่ว่าการอำเภอหัวหิน,12.529716,99.8811264,ทับใต้,หัวหิน,ประจวบคีรีขันธ์,ชายฝั่งทะเลประจวบคีรีขันธ์,ภาคกลาง,R
STU004,ควนกาหลง,6.9283776,99.936032,อุใดเจริญ,ควนกาหลง,สตูล,ภาคใต้ฝั่งตะวันตก,ภาคใต้,W
PRN002,หัวหิน,12.5084952,99.8420032,ทับใต้,หัวหิน,ประจวบคีรีขันธ์,ชายฝั่งทะเลประจวบคีรีขันธ์,ภาคกลาง,W
SWR011,ศาลากลางหมู่บ้านแพรกตะลุย,12.32247,99.62341,เขาจ้าว,ปราณบุรี,ประจวบคีรีขันธ์,ชายฝั่งทะเลประจวบคีรีขันธ์,ภาคกลาง,R
TPI006,พระแสง,8.537488,99.18096,ไทรขึง,พระแสง,สุราษฎร์ธานี,แม่น้ำตาปี,ภาคใต้,W
SWR021,อบต.ตะปาน,8.866712,99.146944,ตะปาน,พุนพิน,สุราษฎร์ธานี,แม่น้ำตาปี,ภาคใต้,R
SWR015,สำนักงานเกษตรอำเภอบางสะพาน,11.2418208,99.481088,กำเนิดนพคุณ,บางสะพาน,ประจวบคีรีขันธ์,ชายฝั่งทะเลประจวบคีรีขันธ์,ภาคกลาง,R
SWR037,รร.ผังปาล์ม 4,7.0223552,99.9309312,ปาล์มพัฒนา,มะนัง,สตูล,ภาคใต้ฝั่งตะวันตก,ภาคใต้,R
SWR033,ทม.พัทลุง,7.6182808,100.07376,คูหาสวรรค์,เมืองพัทลุง,พัทลุง,ทะเลสาบสงขลา,ภาคใต้,R
PCH003,ท่ายาง,12.8134832,99.7940352,กลัดหลวง,ท่ายาง,เพชรบุรี,แม่น้ำเพชรบุรี,ภาคกลาง,W
STU003,มะนัง,6.9408056,99.8729024,นิคมพัฒนา,มะนัง,สตูล,ภาคใต้ฝั่งตะวันตก,ภาคใต้,W
TNG004,ปะเหลียน,7.3720032,99.6772736,ท่าพญา,ปะเหลียน,ตรัง,ภาคใต้ฝั่งตะวันตก,ภาคใต้,W
SWR031,รพสต.บ้านเขาปู่,7.7095224,99.8380416,เขาปู่,ศรีบรรพต,พัทลุง,ทะเลสาบสงขลา,ภาคใต้,R
TNG006,รัษฎา,7.9640744,99.5977856,ควนเมา,รัษฎา,ตรัง,ภาคใต้ฝั่งตะวันตก,ภาคใต้,W
NKO003,ถ้ำพรรณรา,8.3912104,99.3951872,ถ้ำพรรณรา,ถ้ำพรรณรา,นครศรีธรรมราช,แม่น้ำตาปี,ภาคใต้,W
NKO004,ทุ่งใหญ่,8.4145472,99.249792,บางรูป,ทุ่งใหญ่,นครศรีธรรมราช,แม่น้ำตาปี,ภาคใต้,W
SWR036,มัสยิดกาวมินมูฮายีริน,7.0885048,100.0020416,ปาล์มพัฒนา,มะนัง,สตูล,ภาคใต้ฝั่งตะวันตก,ภาคใต้,R
TNG003,คลองนางน้อย,7.5680376,99.6511232,นาโยงใต้,เมืองตรัง,ตรัง,ภาคใต้ฝั่งตะวันตก,ภาคใต้,W
SWR038,มูศ๊อลลา(มัสยิด)ชูฮาดา,6.9642552,100.0268416,ควนกาหลง,ควนกาหลง,สตูล,ภาคใต้ฝั่งตะวันตก,ภาคใต้,R
SWR029,รร.วัดควนสีนวล,7.5271344,99.7376,นาข้าวเสีย,นาโยง,ตรัง,ภาคใต้ฝั่งตะวันตก,ภาคใต้,R
STU002,ละงู,6.8857768,99.8043456,ละงู,ละงู,สตูล,ภาคใต้ฝั่งตะวันตก,ภาคใต้,W
SWR035,สนามทับทุ่ม บ้านวังนาใน หมู่ที่ 10,7.1356728,99.937344,น้ำผุด,ละงู,สตูล,ภาคใต้ฝั่งตะวันตก,ภาคใต้,R
SWR024,ทต.จันดี,8.3882344,99.5406656,จันดี,ฉวาง,นครศรีธรรมราช,แม่น้ำตาปี,ภาคใต้,R
SWR034,รร.บ้านเหมืองตะกั่ว,7.2132752,100.0794112,หนองธง,ป่าบอน,พัทลุง,ทะเลสาบสงขลา,ภาคใต้,R
SWR006,วัดคะเมยกาญจนผลาราม,13.0016592,99.5863424,แก่งกระจาน,แก่งกระจาน,เพชรบุรี,แม่น้ำเพชรบุรี,ภาคกลาง,R
SWR026,รร.บ้านพูน,8.038284,99.6431296,กะปาง,ทุ่งสง,นครศรีธรรมราช,ภาคใต้ฝั่งตะวันตก,ภาคใต้,R
SWR025,ฝายคลองท่าเลา,8.2325472,99.7077824,นาหลวงเสน,ทุ่งสง,นครศรีธรรมราช,ภาคใต้ฝั่งตะวันตก,ภาคใต้,W
SWR002,รพสต.แก่นมะกรูด,15.1618496,99.2890112,แก่นมะกรูด,บ้านไร่,อุทัยธานี,แม่น้ำแม่กลอง,ภาคเหนือ,R
FOP024,รร.บ้านวาน้อย,17.6224864,103.9365312,วาใหญ่,อากาศอำนวย,สกลนคร,,ภาคตะวันออกเฉียงเหนือ,R
FOP029,สะพานบ้านสวนปราง,9.0212784,99.6330432,คลองสระ,กาญจนดิษฐ์,สุราษฎร์ธานี,,ภาคใต้,W
FOP010,อ่างเก็บน้ำห้วยยาง,18.9449,100.9552,ป่าแลวหลวง,สันติสุข,น่าน,แม่น้ำน่าน,ภาคเหนือ,R
FOP012,รร.บ้านปางช้าง,18.8934688,101.022944,ป่าแลวหลวง,สันติสุข,น่าน,แม่น้ำน่าน,ภาคเหนือ,R
FOP001,ชุมชนบ้านร้องแง,19.1747984,100.9364032,วรนคร,ปัว,น่าน,แม่น้ำน่าน,ภาคเหนือ,R
FOP049,หมู่บ้านปิยะมิตร 3,5.9342256,101.1087424,อัยเยอร์เวง,เบตง,ยะลา,,ภาคใต้,R
FOP048,ทะเลหมอก อัยเยอร์เวง,5.9985416,101.1765632,อัยเยอร์เวง,เบตง,ยะลา,,ภาคใต้,R
FOP016,ลำน้ำสานบ้านทุ่งยาวเหนือ,18.5118656,99.0772736,ศรีบัวบาน,เมืองลำพูน,ลำพูน,แม่น้ำปิง,ภาคเหนือ,W
FOP054,สะพานแม่น้ำลาว,19.108192,99.455232,แม่เจดีย์ใหม่,เวียงป่าเป้า,เชียงราย,,ภาคเหนือ,W
FOP013,บ้านตอง,18.8465376,101.0288832,แม่จริม,แม่จริม,น่าน,แม่น้ำน่าน,ภาคเหนือ,W
FOP017,บ้านหนองแดง,19.1310784,98.3179264,บ้านจันทร์,กัลยาณิวัฒนา,เชียงใหม่,,ภาคเหนือ,R
FOP050,รร.กองม่องทะ สาขาไล่โว่,15.30931,98.50981,ไล่โว่,สังขละบุรี,กาญจนบุรี,,ภาคกลาง,R
FOP059,ชุมชนตำบลคลองสระ (น้ำตกภูริน),8.9939544,99.658592,คลองสระ,กาญจนดิษฐ์,สุราษฎร์ธานี,,ภาคใต้,R
FOP063,บ้านคลองมุย หมู่ที่ 13,9.2495,98.8598,ตะกุกเหนือ,วิภาวดี,สุราษฎร์ธานี,,ภาคใต้,W
FOP027,พิพิธภัณฑ์ธรรมชาติจัดการน้ำชุมชนฯ บ้านปากซวด,8.900032,98.8035584,พะแสง,บ้านตาขุน,สุราษฎร์ธานี,,ภาคใต้,R
FOP014,สะพานลำน้ำยาม,17.5948496,103.9694656,อากาศ,อากาศอำนวย,สกลนคร,แม่น้ำโขง,ภาคตะวันออกเฉียงเหนือ,W
FOP061,บ้านคลองวาย หมู่ที่ 7,9.3685312,98.8674624,ตะกุกเหนือ,วิภาวดี,สุราษฎร์ธานี,,ภาคใต้,W
FOP062,บ้านคลองใส หมู่ที่ 8,9.3146824,98.8898496,ตะกุกเหนือ,วิภาวดี,สุราษฎร์ธานี,,ภาคใต้,W
FOP028,สะพานทางเข้าชุมชนบ้านปากซวด,8.889676,98.8203136,พะแสง,บ้านตาขุน,สุราษฎร์ธานี,,ภาคใต้,W
FOP025,สะพานบางไตประชาบริรักษ์,9.282496,98.8769472,ตะกุกเหนือ,วิภาวดี,สุราษฎร์ธานี,,ภาคใต้,W
FOP043,คลองปะแต,6.4125832,101.138912,ปะแต,ยะหา,ยะลา,,ภาคใต้,W
FOP044,เทศบาลตำบลปะแต,6.413974,101.13616,ปะแต,ยะหา,ยะลา,,ภาคใต้,R
FOP035,สะพานข้ามคลองวังเคียน,7.9545928,99.8964032,วังอ่าง,ชะอวด,นครศรีธรรมราช,,ภาคใต้,W
FOP036,สะพานห้วยน้ำใส,7.8895728,99.87424,เกาะขันธ์,ชะอวด,นครศรีธรรมราช,,ภาคใต้,W
FOP060,ชุมชนตำบลเกาะขันธ์ (บ้านน้ำตก),7.9637808,99.7775872,เกาะขันธ์,ชะอวด,นครศรีธรรมราช,,ภาคใต้,R
FOP037,สะพานข้ามคลองห้วยกรวด,7.8768224,99.93328,เกาะขันธ์,ชะอวด,นครศรีธรรมราช,,ภาคใต้,W
FOP031,น้ำตกปลิว,8.1626944,99.7591296,ถ้ำใหญ่,ทุ่งสง,นครศรีธรรมราช,,ภาคใต้,R
FOP033,ที่ทำการอุทยานแห่งชาติน้ำตกโยง,8.1723904,99.7412672,ถ้ำใหญ่,ทุ่งสง,นครศรีธรรมราช,,ภาคใต้,R
FOP034,ฝายคลองเปิก,8.1939128,99.734848,ถ้ำใหญ่,ทุ่งสง,นครศรีธรรมราช,,ภาคใต้,R
FOP040,คลองกาแลกูโบ หมู่ที่ 1,6.7385168,101.2521856,คลองใหม่,ยะรัง,ปัตตานี,,ภาคใต้,W
FOP041,คลองสุหงาบารู หมู่ที่ 4,6.7370944,101.273088,คลองใหม่,ยะรัง,ปัตตานี,,ภาคใต้,W
FOP023,รร.บ้านข้าวแป้ง,17.6892496,103.94656,วาใหญ่,อากาศอำนวย,สกลนคร,,ภาคตะวันออกเฉียงเหนือ,R
FOP003,อุทยานแห่งชาติดอยภูคา,19.2039824,101.077664,ภูคา,ปัว,น่าน,แม่น้ำน่าน,ภาคเหนือ,R
FOP046,ศูนย์เรียนรู้ชุมชนบ้านนาซัว หมู่ที่ 2,6.2720092,101.1567296,ถ้ำทะลุ,บันนังสตา,ยะลา,,ภาคใต้,R
FOP056,คลองจอมแจ้ง,17.702368,100.0216832,แม่พูล,ลับแล,อุตรดิตถ์,,ภาคเหนือ,W
FOP039,สะพานท่าสำเภา,7.7296144,100.1079616,ชัยบุรี,เมืองพัทลุง,พัทลุง,,ภาคใต้,W
FOP038,สะพานบ้านแหลมโตนด,7.8175992,100.0475456,แหลมโตนด,ควนขนุน,พัทลุง,,ภาคใต้,W
FOP026,สะพานคลองพาย,9.155656,98.8949952,น้ำหัก,คีรีรัฐนิคม,สุราษฎร์ธานี,,ภาคใต้,W
FOP020,ประปาหมู่บ้านมหาราช,17.7214784,100.0180352,แม่พูล,ลับแล,อุตรดิตถ์,,ภาคเหนือ,R
FOP042,องค์การบริหารส่วนตำบลตาชี,6.55514,101.106304,ตาชี,ยะหา,ยะลา,,ภาคใต้,R
FOP052,ห้วยแม่แจ่ม,19.073096,98.3067456,แจ่มหลวง,กัลยาณิวัฒนา,เชียงใหม่,,ภาคเหนือ,W
FOP018,บ้านขุนแม่ละอุปหมู่ที่ 3,19.040228,98.200279,แจ่มหลวง,กัลยาณิวัฒนา,เชียงใหม่,,ภาคเหนือ,R
FOP015,ลำน้ำกวงสะพานศรีดอนชัย,18.6532368,99.0644096,บ้านธิ,บ้านธิ,ลำพูน,แม่น้ำปิง,ภาคเหนือ,W
FOP021,น้ำตกแม่พูล,17.7283984,99.9781632,แม่พูล,ลับแล,อุตรดิตถ์,,ภาคเหนือ,R
FOP058,บ้านใต้,8.1783304,99.703552,นาหลวงเสน,ทุ่งสง,นครศรีธรรมราช,,ภาคใต้,W
FOP057,บ้านประดู่,8.2120152,99.7032832,นาหลวงเสน,ทุ่งสง,นครศรีธรรมราช,,ภาคใต้,W
FOP032,ไร่ วงศ์ ทอง เมฆ ดี,8.0902648,99.7388352,ที่วัง,ทุ่งสง,นครศรีธรรมราช,,ภาคใต้,R
FOP055,คลองกั้ง,17.71632,100.1241152,บ้านด่านนาขาม,เมืองอุตรดิตถ์,อุตรดิตถ์,,ภาคเหนือ,W
FOP019,คลองสรอย วัดแม่ขมวก,17.7749616,99.4693824,สรอย,วังชิ้น,แพร่,,ภาคเหนือ,W
FOP022,สะพานวัดมงคลร่วมใจ (บ้านวังสาร),16.6705056,100.327904,ท่าตาล,บางกระทุ่ม,พิษณุโลก,,ภาคเหนือ,W
FOP030,สะพานข้ามคลองหวาด,8.935932,99.6087424,คลองสระ,กาญจนดิษฐ์,สุราษฎร์ธานี,,ภาคใต้,W
FOP053,ชุมชนแม่แดด,18.9626944,98.4124736,แม่แดด,กัลยาณิวัฒนา,เชียงใหม่,,ภาคเหนือ,R
FOP002,รร.ภูคาวิทยาคม,19.227992,101.062592,ภูคา,ปัว,น่าน,แม่น้ำน่าน,ภาคเหนือ,R
FOP009,รร.บ้านปางยาง,19.1356,100.9964,ภูคา,ปัว,น่าน,แม่น้ำน่าน,ภาคเหนือ,R
FOP011,สะพานน้ำมวบ (บ้านภูแยง),18.9240096,100.9267136,ดู่พงษ์,สันติสุข,น่าน,แม่น้ำน่าน,ภาคเหนือ,W
FOP005,ลำน้ำขว้าง (ฝายจ้าว),19.1801856,100.9590656,ศิลาแลง,ปัว,น่าน,แม่น้ำน่าน,ภาคเหนือ,W
FOP008,ลำน้ำกูน,19.1489088,100.9464064,ศิลาแลง,ปัว,น่าน,แม่น้ำน่าน,ภาคเหนือ,W
FOP047,โรงเรียนนิคมสร้างตนเองพัฒนาภาคใต้ 1,6.3125324,101.3610496,ตลิ่งชัน,บันนังสตา,ยะลา,,ภาคใต้,R
FOP004,รร.พนาสวรรค์,19.1797648,101.04176,ภูคา,ปัว,น่าน,แม่น้ำน่าน,ภาคเหนือ,R
FOP006,จุดชมวิว 1715,19.1748224,101.106144,ภูคา,ปัว,น่าน,แม่น้ำน่าน,ภาคเหนือ,R
FOP007,บ้านผาเวียง,19.1578176,101.0251136,ภูคา,ปัว,น่าน,แม่น้ำน่าน,ภาคเหนือ,R
VLGE32,รร. บ้านเพ็กเฟื้อย-ห้วยเตย,17.147376,102.332128,หนองหว้า,เมืองหนองบัวลำภู,หนองบัวลำภู,แม่น้ำชี,ภาคตะวันออกเฉียงเหนือ,R
VLGE39,บ้านโนนศรีเจริญ,16.6162048,103.7173312,ยอดแกง,นามน,กาฬสินธุ์,แม่น้ำชี,ภาคตะวันออกเฉียงเหนือ,R
VLGE49,ตำบลซับสมบูรณ์,15.6160368,101.0235072,ซับสมบูรณ์,วิเชียรบุรี,เพชรบูรณ์,แม่น้ำป่าสัก,ภาคเหนือ,R
VLGE46,สถานีชุมชนป่าภูถ้ำ,15.8392544,102.4148096,แวงน้อย,แวงน้อย,ขอนแก่น,แม่น้ำชี,ภาคตะวันออกเฉียงเหนือ,R
VLGE27,ชุมชนหนองใหญ่,14.57272,103.4731264,หนองใหญ่,ปราสาท,สุรินทร์,แม่น้ำมูล,ภาคตะวันออกเฉียงเหนือ,R
VLGE01,อบต.ตลาดไทร,15.1816016,102.8444416,ตลาดไทร,ชุมพวง,นครราชสีมา,แม่น้ำมูล,ภาคตะวันออกเฉียงเหนือ,R
VLGE14,ชุมชนบ้านตูม,15.4189504,104.3419136,กุดน้ำใส,ค้อวัง,ยโสธร,แม่น้ำชี,ภาคตะวันออกเฉียงเหนือ,R
VLGE43,ชุมชนจุมจัง,16.4307424,104.073184,จุมจัง,กุฉินารายณ์,กาฬสินธุ์,แม่น้ำชี,ภาคตะวันออกเฉียงเหนือ,W
VLGE13,ชุมแสงสงคราม,16.858552,100.0596416,ชุมแสงสงคราม,บางระกำ,พิษณุโลก,แม่น้ำยม,ภาคเหนือ,W
VLGE37,ตาดโตน,15.8730224,102.0162816,นาฝาย,เมืองชัยภูมิ,ชัยภูมิ,แม่น้ำชี,ภาคตะวันออกเฉียงเหนือ,R
VLGE07,บ้านโคกพลวง,14.5923328,102.6677184,หนองโบสถ์,นางรอง,บุรีรัมย์,แม่น้ำมูล,ภาคตะวันออกเฉียงเหนือ,R
VLGE29,ชุมชนบ้านท่าด่าน,6.8347224,101.2004096,ดอนรัก,หนองจิก,ปัตตานี,ภาคใต้ฝั่งตะวันออก,ภาคใต้,W
VLGE21,ชุมชนโกรกประดู่,14.9352432,102.8886016,โคกกลาง,ลำปลายมาศ,บุรีรัมย์,แม่น้ำมูล,ภาคตะวันออกเฉียงเหนือ,R
VLGE02,บ้านผาชัน,15.7557088,105.49456,สำโรง,โพธิ์ไทร,อุบลราชธานี,แม่น้ำโขง,ภาคตะวันออกเฉียงเหนือ,R
VLGE42,ชุมชนบ้านควน 2,6.5763316,101.1991296,พร่อน,เมืองยะลา,ยะลา,แม่น้ำปัตตานี,ภาคใต้,W
VLGE41,ชุมชนบ้านควน 1,6.5769192,101.1694912,พร่อน,เมืองยะลา,ยะลา,แม่น้ำปัตตานี,ภาคใต้,W
VLGE34,ชุมชนบ้านบุ่งคล้า,18.2948608,103.99488,บุ่งคล้า,บุ่งคล้า,บึงกาฬ,แม่น้ำโขง,ภาคตะวันออกเฉียงเหนือ,R
VLGE20,ศาลาดิน,13.8077888,100.2741504,มหาสวัสดิ์,พุทธมณฑล,นครปฐม,แม่น้ำท่าจีน,ภาคกลาง,W
VLGE30,บ้านหนองตาจอน,13.4339056,99.6701632,ทุ่งหลวง,ปากท่อ,ราชบุรี,แม่น้ำเพชรบุรี,ภาคกลาง,R
VLGE17,รร.ปะทิววิทยา,10.7080184,99.3227456,บางสน,ปะทิว,ชุมพร,ภาคใต้ฝั่งตะวันออก,ภาคใต้,R
VLGE33,ชุมชนบ้านโคกพะยอม,6.8187432,99.809344,ละงู,ละงู,สตูล,ภาคใต้ฝั่งตะวันตก,ภาคใต้,R
VLGE03,เปร็ดใน,12.142016,102.5297856,ห้วงน้ำขาว,เมืองตราด,ตราด,ชายฝั่งทะเลตะวันออก,ภาคกลาง,R
VLGE26,ชุมชนประแส,12.71646,101.70416,ปากน้ำกระแส,แกลง,ระยอง,ชายฝั่งทะเลตะวันออก,ภาคกลาง,W
VLGE47,วัดบางแตน,13.9024304,101.168,บางแตน,บ้านสร้าง,ปราจีนบุรี,แม่น้ำปราจีนบุรี,ภาคกลาง,W
VLGE50,อบต.นาแขม,14.0425856,101.7205056,นาแขม,กบินทร์บุรี,ปราจีนบุรี,แม่น้ำปราจีนบุรี,ภาคกลาง,R
VLGE35,ชุมชนบ้านเหมือง,5.9237752,101.125984,อัยเยอร์เวง,เบตง,ยะลา,แม่น้ำปัตตานี,ภาคใต้,R
VLGE04,ป่าสักงาม,18.9926384,99.1281216,ลวงเหนือ,ดอยสะเก็ด,เชียงใหม่,แม่น้ำปิง,ภาคเหนือ,R
VLGE31,ชุมชนม่วงชุม,20.1010944,100.4039936,ครึ่ง,เชียงของ,เชียงราย,แม่น้ำโขง,ภาคเหนือ,R
VLGE25,แม่หาด,18.4600544,98.650944,บ้านหลวง,จอมทอง,เชียงใหม่,แม่น้ำปิง,ภาคเหนือ,R
VLGE12,นครป่าหมาก,16.6233456,100.3691904,นครป่าหมาก,บางกระทุ่ม,พิษณุโลก,แม่น้ำน่าน,ภาคเหนือ,W
VLGE06,ชุมชนบ้านแม่ละอุป,19.0012256,98.2711232,แจ่มหลวง,"	แม่แจ่ม",เชียงใหม่,แม่น้ำปิง,"ภาคเหนือ	",R
VLGE19,วัดบ้านดงผาปูน,19.073072,101.198912,บ่อเกลือใต้,บ่อเกลือ,น่าน,แม่น้ำน่าน,ภาคเหนือ,R
VLGE45,พิพิธภัณฑ์ธรรมชาติบ้านห้วยปลาหลด,16.7837488,98.8948416,ด่านแม่ละเมา,แม่สอด,ตาก,แม่น้ำสาละวิน,ภาคเหนือ,R
VLGE22,ศูนย์พัฒนาโครงการหลวงห้วยโป่ง,19.128776,99.439968,แม่เจดีย์ใหม่,เวียงป่าเป้า,เชียงราย,แม่น้ำกก,ภาคเหนือ,R
VLGE11,ชุมชนบ้านห้วยทราย,19.3399744,99.217312,เขื่อนผาก,พร้าว,เชียงใหม่,แม่น้ำปิง,ภาคเหนือ,R
VLGE28,ชุมชนแม่ตาลน้อย,18.4151984,99.2646784,เวียงตาล,ห้างฉัตร,ลำปาง,แม่น้ำวัง,ภาคเหนือ,R
VLGE36,ชุมชนห้วยไร่,17.8857776,100.0416,ห้วยไร่,เด่นชัย,แพร่,แม่น้ำยม,ภาคเหนือ,W
VLGE08,อบต.โนนขวาง,15.1807856,103.157472,โนนขวาง,บ้านด่าน,บุรีรัมย์,แม่น้ำมูล,ภาคตะวันออกเฉียงเหนือ,R
VLGE15,ชุมชนหนองปิ้งไก่,16.4347792,99.3673472,นาบ่อคำ,เมืองกำแพงเพชร,กำแพงเพชร,แม่น้ำปิง,ภาคเหนือ,R
VLGE24,วัดพิเสกประดิษฐิ์,15.9165104,102.5362624,ใหม่นาเพียง,แวงใหญ่,ขอนแก่น,แม่น้ำชี,ภาคตะวันออกเฉียงเหนือ,R
VLGE44,อ่างฯหนองกุดใหญ่,14.8589904,103.361184,หนองเต็ง,กระสัง,บุรีรัมย์,แม่น้ำมูล,ภาคตะวันออกเฉียงเหนือ,R
VLGE40,บ้านทับคริสต์,8.7258328,98.8209856,คลองชะอุ่น,พนม,สุราษฎร์ธานี,แม่น้ำตาปี,ภาคใต้,W
VLGE09,ชุมชนบ้านทับคริสต์,8.7504008,98.8019456,คลองชะอุ่น,พนม,สุราษฎร์ธานี,แม่น้ำตาปี,ภาคใต้,R
VLGE16,ชุมชนลีเล็ด,9.191764,99.2538752,ลีเล็ด,พุนพิน,สุราษฎร์ธานี,แม่น้ำตาปี,ภาคใต้,W
TBW028,บ้านโพธิ์ชัยทอง,17.599704,103.9808896,อากาศ,อากาศอำนวย,สกลนคร,แม่น้ำโขง,ภาคตะวันออกเฉียงเหนือ,W
TBW021,สะพานมิตรภาพรับร่อ-หินแก้ว,10.6074752,99.095392,รับร่อ,ท่าแซะ,ชุมพร,ภาคใต้ฝั่งตะวันออก,ภาคใต้,W
TBR012,อบต.บ้านหนองตางู,16.1249984,100.0577472,หนองตางู,บรรพตพิสัย,นครสวรรค์,แม่น้ำน่าน,ภาคเหนือ,R
TBW008,ฝ่ายส่งน้ำและบำรุงรักษาที่ 2,18.883576,99.0811584,เมืองเล็น,สันทราย,เชียงใหม่,แม่น้ำปิง,ภาคเหนือ,W
TBW029,ลำน้ำยัง,16.3205552,104.022464,แวง,โพนทอง,ร้อยเอ็ด,แม่น้ำชี,ภาคตะวันออกเฉียงเหนือ,W
TBR014,อบต.นาโป่ง,17.6442256,99.16272,นาโป่ง,เถิน,ลำปาง,แม่น้ำวัง,ภาคเหนือ,R
TBR011,อบต.เวียงตาล,18.311392,99.3252352,เวียงตาล,ห้างฉัตร,ลำปาง,แม่น้ำวัง,ภาคเหนือ,R
TB0005,อบต.เจริญธรรม,14.3781056,101.0001856,เจริญธรรม,วิหารแดง,สระบุรี,แม่น้ำเจ้าพระยา,ภาคกลาง,R
TBW009,อ่างเก็บน้ำแม่เกี๋ยง,18.4327824,99.498272,บ้านเอื้อม,เมืองลำปาง,ลำปาง,แม่น้ำวัง,ภาคเหนือ,W
TBW025,คลองปาว,16.259256,103.6904384,เหล่าอ้อย,ร่องคำ,กาฬสินธุ์,แม่น้ำชี,ภาคตะวันออกเฉียงเหนือ,W
TBW014,สะพานข้ามคลองเกรียงไกร,15.8432304,100.211488,บางเคียน,ชุมแสง,นครสวรรค์,แม่น้ำน่าน,ภาคเหนือ,W
TBW022,สะพานแม่ฟ้าหลวง,19.921912,99.81824,รอบเวียง,เมืองเชียงราย,เชียงราย,แม่น้ำกก,ภาคเหนือ,W
TBW024,สะพานอิงอุดม,20.1963648,100.4417664,ศรีดอนชัย,เชียงของ,เชียงราย,แม่น้ำโขง,ภาคเหนือ,W
TBR015,สวนเพชรล้านนา,18.8031248,99.583744,แม่สุก,แจ้ห่ม,ลำปาง,แม่น้ำวัง,ภาคเหนือ,R
TBW032,ลำน้ำก่ำ,17.0307024,104.4147584,หนองบ่อ,นาแก,นครพนม,แม่น้ำโขง,ภาคตะวันออกเฉียงเหนือ,W
TBW027,ลำน้ำอูน,17.3227328,103.9792384,สว่าง,พรรณานิคม,สกลนคร,แม่น้ำโขง,ภาคตะวันออกเฉียงเหนือ,W
TBW019,อ่างเก็บน้ำห้วยดินทราย,14.2715936,102.9823104,หนองแวง,ละหานทราย,บุรีรัมย์,แม่น้ำมูล,ภาคตะวันออกเฉียงเหนือ,R
TB0004,คลองแม่น้ำใน,14.3016736,100.9451904,หนองหมู,วิหารแดง,สระบุรี,แม่น้ำเจ้าพระยา,ภาคกลาง,W
TBW030,ลำน้ำพุง,16.996624,104.173632,เต่างอย,เต่างอย,สกลนคร,แม่น้ำโขง,ภาคตะวันออกเฉียงเหนือ,W
TBW017,สะพานข้ามลำปะเทีย,14.6171088,102.900384,อีสานเขต,เฉลิมพระเกียรติ,บุรีรัมย์,แม่น้ำมูล,ภาคตะวันออกเฉียงเหนือ,W
TBR021,ทต.บุ่งค้า,16.1670368,104.6412096,บุ่งค้า,เลิงนกทา,ยโสธร,แม่น้ำมูล,ภาคตะวันออกเฉียงเหนือ,R
TBR020,ทต.ห้องแซง,16.2680944,104.4059072,ห้องแซง,เลิงนกทา,ยโสธร,แม่น้ำมูล,ภาคตะวันออกเฉียงเหนือ,R
TBW018,อ่างเก็บน้ำคูขาด,14.5599056,102.9514432,ประทัดบุ,ประโคนชัย,บุรีรัมย์,แม่น้ำมูล,ภาคตะวันออกเฉียงเหนือ,W
TBR019,อบต.ส้มผ่อ,16.1486416,104.3944,ส้มผ่อ,ไทยเจริญ,ยโสธร,แม่น้ำมูล,ภาคตะวันออกเฉียงเหนือ,R
TBR018,อบต.นาโส่,15.9830896,104.3113472,นาโส่,กุดชุม,ยโสธร,แม่น้ำมูล,ภาคตะวันออกเฉียงเหนือ,R
TBW026,ห้วยยัง,16.6035824,103.962272,ไค้นุ่น,ห้วยผึ้ง,กาฬสินธุ์,แม่น้ำชี,ภาคตะวันออกเฉียงเหนือ,W
TBR022,บ้านน้ำเย็น,10.5887728,99.0312064,หินแก้ว,ท่าแซะ,ชุมพร,ภาคใต้ฝั่งตะวันออก,ภาคใต้,R
TBR013,อบต.ท่าเสา,15.9900416,100.2215936,ท่าเสา,โพทะเล,พิจิตร,แม่น้ำน่าน,ภาคเหนือ,R
TB0006,ทต.ทุ่งสะโตก,18.573888,98.86224,ทุ่งสะโตก,สันป่าตอง,เชียงใหม่,แม่น้ำปิง,ภาคเหนือ,W
TBW023,คลองแม่พุง,19.5665536,99.9842304,ป่าแงะ,ป่าแดด,เชียงราย,แม่น้ำโขง,ภาคเหนือ,W
TBR017,ที่ว่าการอำเภอเมืองยโสธร,15.7953936,104.14032,ในเมือง,เมืองยโสธร,ยโสธร,แม่น้ำชี,ภาคตะวันออกเฉียงเหนือ,R
TB0007,ที่ว่าการอำเภอแม่วาง,18.6126864,98.7752704,บ้านกาด,แม่วาง,เชียงใหม่,แม่น้ำปิง,ภาคเหนือ,R
TBW033,ลำเซบาย,16.1954416,104.5256896,สวาท,เลิงนกทา,ยโสธร,แม่น้ำมูล,ภาคตะวันออกเฉียงเหนือ,W
TBR016,บ้านใหม่สามัคคี,15.0972064,102.8668096,โคกล่าม,ลำปลายมาศ,บุรีรัมย์,แม่น้ำมูล,ภาคตะวันออกเฉียงเหนือ,R
TRD002,ห้วยแร้ง,12.3692928,102.5433216,ห้วยแร้ง,เมืองตราด,ตราด,ชายฝั่งทะเลตะวันออก,ภาคกลาง,W
TON006,อบต.ทัพราช,14.0458064,102.7459264,ทัพราช,ตาพระยา,สระแก้ว,โตนเลสาป,ภาคกลาง,R
TRD003,วังกระแจะ,12.26246,102.5268416,วังกระแจะ,เมืองตราด,ตราด,ชายฝั่งทะเลตะวันออก,ภาคกลาง,W
TRD004,บางพระ,12.2381104,102.5097536,บางพระ,เมืองตราด,ตราด,ชายฝั่งทะเลตะวันออก,ภาคกลาง,W
PRC004,ประจันตคาม (KGT7A),14.07088,101.518912,ประจันตคาม,ประจันตคาม,ปราจีนบุรี,แม่น้ำปราจีนบุรี,ภาคกลาง,W
CHN004,แก่งหางแมว,12.9868208,101.89968,แก่งหางแมว,แก่งหางแมว,จันทบุรี,ชายฝั่งทะเลตะวันออก,ภาคกลาง,W
TON002,โป่งน้ำร้อน,13.0365288,102.3815616,หนองตาคง,โป่งน้ำร้อน,จันทบุรี,โตนเลสาป,ภาคกลาง,W
CHN005,นายายอาม,12.72246,101.9560512,วังใหม่,นายายอาม,จันทบุรี,ชายฝั่งทะเลตะวันออก,ภาคกลาง,W
TON001,ตาพระยา,14.0512576,102.885408,ทัพเสด็จ,ตาพระยา,สระแก้ว,โตนเลสาป,ภาคกลาง,W
TON003,อบต.สะตอน,13.142348,102.303712,สะตอน,สอยดาว,จันทบุรี,โตนเลสาป,ภาคกลาง,R
TON004,อบต.ท่าเกวียน,13.687744,102.2851904,ท่าเกวียน,วัฒนานคร,สระแก้ว,โตนเลสาป,ภาคกลาง,R
RAY002,หนองบัว,12.8492032,101.301344,หนองบัว,บ้านค่าย,ระยอง,ชายฝั่งทะเลตะวันออก,ภาคกลาง,W
RAY003,ทับมา,12.7378952,101.2284416,ทับมา,เมืองระยอง,ระยอง,ชายฝั่งทะเลตะวันออก,ภาคกลาง,W
PRC005,ศรีมหาโพธิ (KGT6),13.9734176,101.5175296,บ้านทาม,ศรีมหาโพธิ,ปราจีนบุรี,แม่น้ำปราจีนบุรี,ภาคกลาง,W
RAY004,บ้านค่าย,12.7068328,101.3003904,ตาขัน,บ้านค่าย,ระยอง,ชายฝั่งทะเลตะวันออก,ภาคกลาง,W
HDA003,ปตร.กลางคลองข้าวเม่า (วัดกระสังข์),14.3573248,100.6056512,หันตรา,พระนครศรีอยุธยา,พระนครศรีอยุธยา,แม่น้ำเจ้าพระยา,ภาคกลาง,W
HDA004,คลองช่องสะเดา,14.3447248,100.6701056,อุทัย,อุทัย,พระนครศรีอยุธยา,แม่น้ำเจ้าพระยา,ภาคกลาง,W
HDA002,ปตร.กระมัง (ปากคลองข้าวเม่า),14.3550736,100.583584,หัวรอ,พระนครศรีอยุธยา,พระนครศรีอยุธยา,แม่น้ำเจ้าพระยา,ภาคกลาง,W
HDA001,ปตร.หันตรา,14.3745824,100.584384,บ้านเกาะ,พระนครศรีอยุธยา,พระนครศรีอยุธยา,แม่น้ำเจ้าพระยา,ภาคกลาง,W
HDA005,วัดขนอนใต้,14.28828,100.6112896,บ้านกรด,บางปะอิน,พระนครศรีอยุธยา,แม่น้ำเจ้าพระยา,ภาคกลาง,W
BKC006,ปตร. คลองบางน้ำผึ้ง,13.6766256,100.5820672,บางน้ำผึ้ง,พระประแดง,สมุทรปราการ,,ภาคกลาง,W
BKC001,สวนศรีนครเขื่อนขันธ์,13.695576,100.5631232,บางกะเจ้า,พระประแดง,สมุทรปราการ,,ภาคกลาง,W
BKC002,ปตร.วัดบางกระเจ้านอก,13.6896048,100.5548032,บางกะเจ้า,พระประแดง,สมุทรปราการ,,ภาคกลาง,W
BKC004,ปตร. คลองลัดบางยอ 2,13.6610576,100.5672704,บางกระสอบ,พระประแดง,สมุทรปราการ,,ภาคกลาง,W
BKC005,ปตร. คลองตาสด,13.6648352,100.5711936,บางกระสอบ,พระประแดง,สมุทรปราการ,,ภาคกลาง,W
BKC007,ปตร. คลองแพ,13.6950016,100.582272,บางกอบัว,พระประแดง,สมุทรปราการ,,ภาคกลาง,W
BKC008,ตลาดน้ำบางน้ำผึ้ง,13.678656,100.5736,บางน้ำผึ้ง,พระประแดง,สมุทรปราการ,,ภาคกลาง,R
BKC003,ปตร. คลองลัดบางยอ 1,13.6761824,100.5530816,บางยอ,พระประแดง,สมุทรปราการ,,ภาคกลาง,W
SDO003,ฝายน้ำล้นคลองปะตง (ทน.),13.1207512,102.2183232,ปะตง,สอยดาว,จันทบุรี,,ภาคกลาง,W
CHK001,บ่อดินขาว,15.1689984,100.4147136,ช่องแค,ตาคลี,นครสวรรค์,,ภาคเหนือ,W
KWN003,เขื่อนแควน้อยบำรุงแดน,17.182176,100.4139072,คันโช้ง,วัดโบสถ์,พิษณุโลก,แม่น้ำน่าน,ภาคเหนือ,W
CAN001,คลองระพีพัฒน์แยกตก,14.2061344,100.7447296,คลองเจ็ด,คลองหลวง,ปทุมธานี,แม่น้ำเจ้าพระยา,ภาคกลาง,W
SDO001,เขตรักษาพันธุ์สัตว์ป่าเขาสอยดาว,13.1035352,102.1919936,ทรายขาว,สอยดาว,จันทบุรี,,ภาคกลาง,R
SDO002,ฝายจิตรมานี,13.1155384,102.2031616,ทรายขาว,สอยดาว,จันทบุรี,,ภาคกลาง,W
CHK002,เขาวง,15.1817088,100.4145664,ช่องแค,ตาคลี,นครสวรรค์,,ภาคเหนือ,W
